{
  "type": "FeatureCollection",
  "name": "taoyuan-building-overlay",
  "features": [
    {
      "type": "Feature",
      "id": "parcel-102-45-fill",
      "properties": {
        "kind": "cadastral-fill",
        "parcelKey": "sanzuwu-jiushe-102-45",
        "parcelNo": "102-45",
        "county": "桃園市",
        "sectionName": "三座屋段舊社小段",
        "crs": "TWD97 二度 TM（EPSG:3826）",
        "cadastralAreaM2": 268.762,
        "occupiedAreaM2": 36.67,
        "occupancyPercent": 13.64,
        "fill": "#ef626c",
        "fill-opacity": 0.25,
        "stroke": "#ffbf47",
        "stroke-width": 3
      },
      "geometry": {
        "type": "Polygon",
        "coordinates": [
          [
            [
              121.217076612,
              24.961751679
            ],
            [
              121.217019901,
              24.961869975
            ],
            [
              121.216863099,
              24.961860573
            ],
            [
              121.21686259,
              24.9617251
            ],
            [
              121.217076612,
              24.961751679
            ]
          ]
        ]
      }
    },
    {
      "type": "Feature",
      "id": "parcel-102-45-boundary",
      "properties": {
        "parcelKey": "sanzuwu-jiushe-102-45",
        "parcelNo": "102-45",
        "county": "桃園市",
        "sectionName": "三座屋段舊社小段",
        "crs": "TWD97 二度 TM（EPSG:3826）",
        "cadastralAreaM2": 268.762,
        "occupiedAreaM2": 36.67,
        "occupancyPercent": 13.64,
        "kind": "cadastral-boundary",
        "stroke": "#ffbf47",
        "stroke-width": 3
      },
      "geometry": {
        "type": "LineString",
        "coordinates": [
          [
            121.217076612,
            24.961751679
          ],
          [
            121.217019901,
            24.961869975
          ],
          [
            121.216863099,
            24.961860573
          ],
          [
            121.21686259,
            24.9617251
          ],
          [
            121.217076612,
            24.961751679
          ]
        ]
      }
    },
    {
      "type": "Feature",
      "id": "parcel-102-45-building",
      "properties": {
        "kind": "occupancy-building",
        "parcelKey": "sanzuwu-jiushe-102-45",
        "parcelNo": "102-45",
        "county": "桃園市",
        "sectionName": "三座屋段舊社小段",
        "crs": "TWD97 二度 TM（EPSG:3826）",
        "cadastralAreaM2": 268.762,
        "occupiedAreaM2": 36.67,
        "occupancyPercent": 13.64,
        "fill": "#30e67e",
        "fill-opacity": 0.55,
        "stroke": "#b9ffd4",
        "stroke-width": 2
      },
      "geometry": {
        "type": "Polygon",
        "coordinates": [
          [
            [
              121.216998666,
              24.961854677
            ],
            [
              121.21702243,
              24.961851934
            ],
            [
              121.217018445,
              24.961838397
            ],
            [
              121.217019413,
              24.961825756
            ],
            [
              121.21701248,
              24.961825766
            ],
            [
              121.217011496,
              24.961829379
            ],
            [
              121.21700852,
              24.961826675
            ],
            [
              121.217007481,
              24.961798688
            ],
            [
              121.217010447,
              24.961795975
            ],
            [
              121.217024309,
              24.96179415
            ],
            [
              121.217024289,
              24.961782413
            ],
            [
              121.217025279,
              24.961782411
            ],
            [
              121.21702627,
              24.96178241
            ],
            [
              121.21703118,
              24.961758929
            ],
            [
              121.217056936,
              24.961762503
            ],
            [
              121.217055937,
              24.961757087
            ],
            [
              121.217058914,
              24.961760694
            ],
            [
              121.217062875,
              24.961760688
            ],
            [
              121.217064845,
              24.961754366
            ],
            [
              121.217065836,
              24.961754364
            ],
            [
              121.217066826,
              24.961754363
            ],
            [
              121.217066831,
              24.961757071
            ],
            [
              121.217069803,
              24.96175797
            ],
            [
              121.217065848,
              24.961761587
            ],
            [
              121.21706685,
              24.961767905
            ],
            [
              121.217063899,
              24.961779646
            ],
            [
              121.217020481,
              24.961869994
            ],
            [
              121.216999682,
              24.961869121
            ],
            [
              121.216998666,
              24.961854677
            ]
          ]
        ]
      }
    }
  ]
}