{
  "type": "FeatureCollection",
  "features": [
    {
      "type": "Feature",
      "id": "parcel-1006-1051-1-fill",
      "properties": {
        "kind": "cadastral-fill",
        "parcelKey": "sanzuwu-sanzuwu-1051-1",
        "parcelNo": "1051-1",
        "sectionName": "三座屋段三座屋小段",
        "cadastralAreaM2": 84,
        "geometryAreaM2": 84.426,
        "sourceCrs": "EPSG:3826",
        "dxfHandle": "328",
        "analysisStatus": "interpreted-draft"
      },
      "geometry": {
        "type": "Polygon",
        "coordinates": [
          [
            [
              121.21049727707977,
              24.957116827726807
            ],
            [
              121.21041730967701,
              24.957089187428004
            ],
            [
              121.210420664434,
              24.95708772008879
            ],
            [
              121.21046581925948,
              24.957067504914363
            ],
            [
              121.21044077208857,
              24.95702002385892
            ],
            [
              121.21059391084951,
              24.957073968766846
            ],
            [
              121.2105564842652,
              24.957090462385192
            ],
            [
              121.21050994383387,
              24.957111185135425
            ],
            [
              121.21049727707977,
              24.957116827726807
            ]
          ]
        ]
      }
    },
    {
      "type": "Feature",
      "id": "parcel-1006-1051-1-boundary",
      "properties": {
        "kind": "cadastral-boundary",
        "parcelKey": "sanzuwu-sanzuwu-1051-1",
        "parcelNo": "1051-1",
        "sectionName": "三座屋段三座屋小段",
        "cadastralAreaM2": 84,
        "geometryAreaM2": 84.426,
        "sourceCrs": "EPSG:3826",
        "dxfHandle": "328",
        "analysisStatus": "interpreted-draft"
      },
      "geometry": {
        "type": "LineString",
        "coordinates": [
          [
            121.21049727707977,
            24.957116827726807
          ],
          [
            121.21041730967701,
            24.957089187428004
          ],
          [
            121.210420664434,
            24.95708772008879
          ],
          [
            121.21046581925948,
            24.957067504914363
          ],
          [
            121.21044077208857,
            24.95702002385892
          ],
          [
            121.21059391084951,
            24.957073968766846
          ],
          [
            121.2105564842652,
            24.957090462385192
          ],
          [
            121.21050994383387,
            24.957111185135425
          ],
          [
            121.21049727707977,
            24.957116827726807
          ]
        ]
      }
    },
    {
      "type": "Feature",
      "id": "1051-1-north-roof-0",
      "properties": {
        "kind": "occupancy-building",
        "parcelKey": "sanzuwu-sanzuwu-1051-1",
        "parcelNo": "1051-1",
        "analysisStatus": "interpreted-draft",
        "analysisVersion": "20261010-draft-v2-user-review",
        "targetId": "1051-1-north-roof",
        "category": "建物／屋簷",
        "confidence": "low",
        "sourceCrs": "EPSG:3826",
        "note": "北側淺綠色屋頂及檐口。依使用者要求排除電線桿：局部 LAS 屋頂約離地 8.3–8.6 m，桿件／橫臂約 9.6–9.8 m；9 m 以上高點投影外擴 15 cm 作排除遮罩，仍待影像與現地複核。",
        "displayWallContinuity": false
      },
      "geometry": {
        "type": "Polygon",
        "coordinates": [
          [
            [
              121.21054232815627,
              24.95709361998292
            ],
            [
              121.2105423289722,
              24.957093622930525
            ],
            [
              121.21054235058705,
              24.95709375435341
            ],
            [
              121.2105423519144,
              24.95709377782536
            ],
            [
              121.21054241796345,
              24.957093832173225
            ],
            [
              121.2105425159763,
              24.957093930534473
            ],
            [
              121.21054260301037,
              24.95709403712708
            ],
            [
              121.21054263508103,
              24.957094085744792
            ],
            [
              121.2105426885098,
              24.95709411483099
            ],
            [
              121.21054280570233,
              24.957094193844377
            ],
            [
              121.21054291389981,
              24.95709428289198
            ],
            [
              121.21054301191268,
              24.95709438125323
            ],
            [
              121.21054309894676,
              24.95709448784584
            ],
            [
              121.21054317410922,
              24.957094601768226
            ],
            [
              121.21054323660579,
              24.957094721847827
            ],
            [
              121.21054328593935,
              24.95709484691165
            ],
            [
              121.21054332161268,
              24.957094975786713
            ],
            [
              121.21054334322756,
              24.95709510720959
            ],
            [
              121.2105433445549,
              24.957095130681548
            ],
            [
              121.21054341060396,
              24.95709518502941
            ],
            [
              121.2105435086168,
              24.95709528339066
            ],
            [
              121.21054359565088,
              24.95709538998326
            ],
            [
              121.21054367081334,
              24.95709550390566
            ],
            [
              121.21054373330993,
              24.95709562398525
            ],
            [
              121.21054378264347,
              24.957095749049074
            ],
            [
              121.21054381831682,
              24.95709587792414
            ],
            [
              121.21054383993167,
              24.95709600934702
            ],
            [
              121.21054384442704,
              24.95709609044451
            ],
            [
              121.2105564842652,
              24.957090462385192
            ],
            [
              121.21056454826996,
              24.957086908639226
            ],
            [
              121.21056413230895,
              24.95708618214486
            ],
            [
              121.21054232815627,
              24.95709361998292
            ]
          ]
        ]
      }
    },
    {
      "type": "Feature",
      "id": "1051-1-north-roof-1",
      "properties": {
        "kind": "occupancy-building",
        "parcelKey": "sanzuwu-sanzuwu-1051-1",
        "parcelNo": "1051-1",
        "analysisStatus": "interpreted-draft",
        "analysisVersion": "20261010-draft-v2-user-review",
        "targetId": "1051-1-north-roof",
        "category": "建物／屋簷",
        "confidence": "low",
        "sourceCrs": "EPSG:3826",
        "note": "北側淺綠色屋頂及檐口。依使用者要求排除電線桿：局部 LAS 屋頂約離地 8.3–8.6 m，桿件／橫臂約 9.6–9.8 m；9 m 以上高點投影外擴 15 cm 作排除遮罩，仍待影像與現地複核。",
        "displayWallContinuity": false
      },
      "geometry": {
        "type": "Polygon",
        "coordinates": [
          [
            [
              121.21053599384061,
              24.95709925476963
            ],
            [
              121.21053595816726,
              24.957099125894572
            ],
            [
              121.21053593655242,
              24.957098994471693
            ],
            [
              121.21053592919627,
              24.957098861764678
            ],
            [
              121.21053592860619,
              24.957098514804287
            ],
            [
              121.21053586840826,
              24.957098465233198
            ],
            [
              121.21053577039542,
              24.957098366871946
            ],
            [
              121.21053568336136,
              24.95709826027933
            ],
            [
              121.21053560819892,
              24.957098146356937
            ],
            [
              121.21053554570231,
              24.95709802627733
            ],
            [
              121.21053549636878,
              24.957097901213505
            ],
            [
              121.21053546069545,
              24.957097772338443
            ],
            [
              121.2105354390806,
              24.95709764091556
            ],
            [
              121.21053543775325,
              24.95709761744361
            ],
            [
              121.2105353717042,
              24.957097563095743
            ],
            [
              121.21053527369136,
              24.95709746473449
            ],
            [
              121.21053518665728,
              24.957097358141873
            ],
            [
              121.21053511149482,
              24.957097244219486
            ],
            [
              121.21053504899825,
              24.957097124139874
            ],
            [
              121.2105350374142,
              24.957097094773584
            ],
            [
              121.21053444215492,
              24.95709796102701
            ],
            [
              121.21052884153754,
              24.957100523820966
            ],
            [
              121.21052888669612,
              24.95710061058769
            ],
            [
              121.21052893602965,
              24.957100735651522
            ],
            [
              121.21052897170298,
              24.95710086452658
            ],
            [
              121.21052899331784,
              24.95710099594947
            ],
            [
              121.21052900067394,
              24.957101128656483
            ],
            [
              121.21052900220937,
              24.957102031493832
            ],
            [
              121.21052899530463,
              24.957102164221002
            ],
            [
              121.21052897413692,
              24.957102295704356
            ],
            [
              121.2105289389021,
              24.95710242467964
            ],
            [
              121.21052888999418,
              24.957102549882325
            ],
            [
              121.21052882790632,
              24.95710267013802
            ],
            [
              121.2105287531317,
              24.957102784272337
            ],
            [
              121.2105287203996,
              24.957102824620698
            ],
            [
              121.21053612419078,
              24.95709952798359
            ],
            [
              121.21053610567073,
              24.957099499913067
            ],
            [
              121.21053604317414,
              24.95709937983346
            ],
            [
              121.21053599384061,
              24.95709925476963
            ]
          ]
        ]
      }
    },
    {
      "type": "Feature",
      "id": "1051-1-north-roof-2",
      "properties": {
        "kind": "occupancy-building",
        "parcelKey": "sanzuwu-sanzuwu-1051-1",
        "parcelNo": "1051-1",
        "analysisStatus": "interpreted-draft",
        "analysisVersion": "20261010-draft-v2-user-review",
        "targetId": "1051-1-north-roof",
        "category": "建物／屋簷",
        "confidence": "low",
        "sourceCrs": "EPSG:3826",
        "note": "北側淺綠色屋頂及檐口。依使用者要求排除電線桿：局部 LAS 屋頂約離地 8.3–8.6 m，桿件／橫臂約 9.6–9.8 m；9 m 以上高點投影外擴 15 cm 作排除遮罩，仍待影像與現地複核。",
        "displayWallContinuity": false
      },
      "geometry": {
        "type": "Polygon",
        "coordinates": [
          [
            [
              121.21050994383387,
              24.957111185135425
            ],
            [
              121.21052745526316,
              24.957103387939572
            ],
            [
              121.21052603350059,
              24.957103389949076
            ],
            [
              121.21052588790994,
              24.957103383654417
            ],
            [
              121.21052574368366,
              24.95710336435693
            ],
            [
              121.21052560220852,
              24.957103332235242
            ],
            [
              121.21052546487164,
              24.9571032876485
            ],
            [
              121.21052533296115,
              24.957103231046343
            ],
            [
              121.21052520776534,
              24.957103162878333
            ],
            [
              121.21052509057282,
              24.95710308386495
            ],
            [
              121.2105249823753,
              24.95710299481733
            ],
            [
              121.21052492781355,
              24.95710294009209
            ],
            [
              121.21052454722692,
              24.95710294063
            ],
            [
              121.2105244016363,
              24.95710293433533
            ],
            [
              121.21052425741003,
              24.95710291503784
            ],
            [
              121.21052411593489,
              24.95710288291614
            ],
            [
              121.210523978598,
              24.957102838329416
            ],
            [
              121.21052384668752,
              24.957102781727247
            ],
            [
              121.21052372149171,
              24.957102713559248
            ],
            [
              121.21052360429918,
              24.957102634545855
            ],
            [
              121.21052349610167,
              24.957102545498234
            ],
            [
              121.21052343628207,
              24.957102485453667
            ],
            [
              121.21052341053132,
              24.957102484316376
            ],
            [
              121.21052326630505,
              24.957102465018885
            ],
            [
              121.2105231248299,
              24.95710243289719
            ],
            [
              121.21052298749302,
              24.957102388310453
            ],
            [
              121.21052285558254,
              24.957102331708285
            ],
            [
              121.21052273038671,
              24.957102263540282
            ],
            [
              121.2105226131942,
              24.95710218452689
            ],
            [
              121.21052250499672,
              24.957102095479268
            ],
            [
              121.21052245043496,
              24.957102040754027
            ],
            [
              121.21052206984834,
              24.957102041291936
            ],
            [
              121.2105219242577,
              24.957102034997266
            ],
            [
              121.21052178003143,
              24.957102015699768
            ],
            [
              121.21052163855629,
              24.957101983578067
            ],
            [
              121.21052150121938,
              24.95710193899134
            ],
            [
              121.21052136930892,
              24.95710188238917
            ],
            [
              121.21052124411311,
              24.957101814221165
            ],
            [
              121.21052112692058,
              24.95710173520778
            ],
            [
              121.21052101872307,
              24.957101646160147
            ],
            [
              121.21052095890349,
              24.95710158611558
            ],
            [
              121.21052093315272,
              24.957101584978282
            ],
            [
              121.21052078892644,
              24.957101565680798
            ],
            [
              121.21052064745133,
              24.957101533559097
            ],
            [
              121.21052051011442,
              24.957101488972356
            ],
            [
              121.21052037820397,
              24.95710143237019
            ],
            [
              121.21052025300813,
              24.957101364202185
            ],
            [
              121.21052013581563,
              24.957101285188788
            ],
            [
              121.21052005575562,
              24.957101219298597
            ],
            [
              121.2105136542843,
              24.957103407445224
            ],
            [
              121.21051118074398,
              24.957104765200352
            ],
            [
              121.21051118611746,
              24.957107925131083
            ],
            [
              121.21050871334464,
              24.957109734304854
            ],
            [
              121.21050475045999,
              24.95710883706592
            ],
            [
              121.21050433398135,
              24.957106580555706
            ],
            [
              121.21049336407911,
              24.9571103226064
            ],
            [
              121.21049485860027,
              24.957115622341647
            ],
            [
              121.21049439436709,
              24.95711583133377
            ],
            [
              121.21049727707977,
              24.957116827726807
            ],
            [
              121.21050994383387,
              24.957111185135425
            ]
          ]
        ]
      }
    }
  ]
}