{
  "type": "FeatureCollection",
  "features": [
    {
      "type": "Feature",
      "id": "parcel-1006-239-1-fill",
      "properties": {
        "kind": "cadastral-fill",
        "parcelKey": "sanzuwu-sanzuwu-239-1",
        "parcelNo": "239-1",
        "sectionName": "三座屋段三座屋小段",
        "cadastralAreaM2": 228,
        "geometryAreaM2": 227.399,
        "sourceCrs": "EPSG:3826",
        "dxfHandle": "306",
        "analysisStatus": "interpreted-draft"
      },
      "geometry": {
        "type": "Polygon",
        "coordinates": [
          [
            [
              121.20934994532898,
              24.961500745412806
            ],
            [
              121.20925945733907,
              24.9614729748557
            ],
            [
              121.20929859916578,
              24.961445004070583
            ],
            [
              121.20935249141526,
              24.96140755078822
            ],
            [
              121.20937913049727,
              24.96138881554299
            ],
            [
              121.20947282066679,
              24.961383429274488
            ],
            [
              121.2094896039836,
              24.961311133402226
            ],
            [
              121.20950896255961,
              24.961297527471782
            ],
            [
              121.2096181065969,
              24.961312117256806
            ],
            [
              121.20934994532898,
              24.961500745412806
            ]
          ]
        ]
      }
    },
    {
      "type": "Feature",
      "id": "parcel-1006-239-1-boundary",
      "properties": {
        "kind": "cadastral-boundary",
        "parcelKey": "sanzuwu-sanzuwu-239-1",
        "parcelNo": "239-1",
        "sectionName": "三座屋段三座屋小段",
        "cadastralAreaM2": 228,
        "geometryAreaM2": 227.399,
        "sourceCrs": "EPSG:3826",
        "dxfHandle": "306",
        "analysisStatus": "interpreted-draft"
      },
      "geometry": {
        "type": "LineString",
        "coordinates": [
          [
            121.20934994532898,
            24.961500745412806
          ],
          [
            121.20925945733907,
            24.9614729748557
          ],
          [
            121.20929859916578,
            24.961445004070583
          ],
          [
            121.20935249141526,
            24.96140755078822
          ],
          [
            121.20937913049727,
            24.96138881554299
          ],
          [
            121.20947282066679,
            24.961383429274488
          ],
          [
            121.2094896039836,
            24.961311133402226
          ],
          [
            121.20950896255961,
            24.961297527471782
          ],
          [
            121.2096181065969,
            24.961312117256806
          ],
          [
            121.20934994532898,
            24.961500745412806
          ]
        ]
      }
    },
    {
      "type": "Feature",
      "id": "239-1-west-canopy-0",
      "properties": {
        "kind": "occupancy-building",
        "parcelKey": "sanzuwu-sanzuwu-239-1",
        "parcelNo": "239-1",
        "analysisStatus": "interpreted-draft",
        "analysisVersion": "20261010-draft-v2-user-review",
        "targetId": "239-1-west-canopy",
        "category": "棚架／雨遮",
        "confidence": "medium",
        "sourceCrs": "EPSG:3826",
        "note": "西北側綠色連續遮棚，排除北端樹冠。",
        "displayWallContinuity": false
      },
      "geometry": {
        "type": "Polygon",
        "coordinates": [
          [
            [
              121.20932959253331,
              24.96143012786824
            ],
            [
              121.20932760949889,
              24.961428776396886
            ],
            [
              121.20932859639215,
              24.96142671816595
            ],
            [
              121.209270746925,
              24.96146490730964
            ],
            [
              121.2092685824686,
              24.961466454031882
            ],
            [
              121.20926825587306,
              24.961469487564774
            ],
            [
              121.20927221583577,
              24.961468579161437
            ],
            [
              121.20927320239166,
              24.961466320677573
            ],
            [
              121.2092756783224,
              24.961466317198482
            ],
            [
              121.20927766441002,
              24.961469474344312
            ],
            [
              121.20930685214739,
              24.961452730804957
            ],
            [
              121.20933009917157,
              24.96143689844896
            ],
            [
              121.20932860750564,
              24.96143328918938
            ],
            [
              121.20932959253331,
              24.96143012786824
            ]
          ]
        ]
      }
    },
    {
      "type": "Feature",
      "id": "239-1-south-roof-0",
      "properties": {
        "kind": "occupancy-building",
        "parcelKey": "sanzuwu-sanzuwu-239-1",
        "parcelNo": "239-1",
        "analysisStatus": "interpreted-draft",
        "analysisVersion": "20261010-draft-v2-user-review",
        "targetId": "239-1-south-roof",
        "category": "建物／屋簷",
        "confidence": "medium",
        "sourceCrs": "EPSG:3826",
        "note": "南側大型鐵皮屋頂北緣跨入地籍的部分。",
        "displayWallContinuity": false
      },
      "geometry": {
        "type": "Polygon",
        "coordinates": [
          [
            [
              121.20940429458952,
              24.96138804083768
            ],
            [
              121.20940499561682,
              24.961387328557496
            ],
            [
              121.20938457529692,
              24.961388502521878
            ],
            [
              121.20936755555147,
              24.961396956194477
            ],
            [
              121.20935249141526,
              24.96140755078822
            ],
            [
              121.20934057093308,
              24.961415835121965
            ],
            [
              121.20934128562824,
              24.96141792310565
            ],
            [
              121.20934936943101,
              24.961412043288945
            ],
            [
              121.20935234054654,
              24.96141203911252
            ],
            [
              121.2093563104333,
              24.961416999146785
            ],
            [
              121.20935855180124,
              24.961416995996053
            ],
            [
              121.20937511410109,
              24.961409052635346
            ],
            [
              121.20940429458952,
              24.96138804083768
            ]
          ]
        ]
      }
    },
    {
      "type": "Feature",
      "id": "239-1-southeast-roof-0",
      "properties": {
        "kind": "occupancy-building",
        "parcelKey": "sanzuwu-sanzuwu-239-1",
        "parcelNo": "239-1",
        "analysisStatus": "interpreted-draft",
        "analysisVersion": "20261010-draft-v2-user-review",
        "targetId": "239-1-southeast-roof",
        "category": "建物／屋簷",
        "confidence": "medium",
        "sourceCrs": "EPSG:3826",
        "note": "東南側相接鐵皮屋頂前緣。",
        "displayWallContinuity": false
      },
      "geometry": {
        "type": "Polygon",
        "coordinates": [
          [
            [
              121.20949826069736,
              24.961317487242866
            ],
            [
              121.20950321178867,
              24.96131702885874
            ],
            [
              121.209505187182,
              24.961313866143275
            ],
            [
              121.20950815753102,
              24.961313410545305
            ],
            [
              121.20951310098063,
              24.961308437976356
            ],
            [
              121.20951706017219,
              24.961307078148078
            ],
            [
              121.20951903632916,
              24.96130436685088
            ],
            [
              121.20952599102586,
              24.961299803750613
            ],
            [
              121.20950896255961,
              24.961297527471782
            ],
            [
              121.2094896039836,
              24.961311133402226
            ],
            [
              121.20948612505562,
              24.96132611925124
            ],
            [
              121.20949826069736,
              24.961317487242866
            ]
          ]
        ]
      }
    }
  ]
}