{
  "type": "FeatureCollection",
  "features": [
    {
      "type": "Feature",
      "id": "parcel-1006-471-7-fill",
      "properties": {
        "kind": "cadastral-fill",
        "parcelKey": "sanzuwu-sanzuwu-471-7",
        "parcelNo": "471-7",
        "sectionName": "三座屋段三座屋小段",
        "cadastralAreaM2": 102,
        "geometryAreaM2": 106.917,
        "sourceCrs": "EPSG:3826",
        "dxfHandle": "333",
        "analysisStatus": "interpreted-draft"
      },
      "geometry": {
        "type": "Polygon",
        "coordinates": [
          [
            [
              121.20674678346107,
              24.9609251112247
            ],
            [
              121.20670424381223,
              24.96083421824932
            ],
            [
              121.20666992226681,
              24.960759908041666
            ],
            [
              121.2066721556113,
              24.96075697974347
            ],
            [
              121.20671348308801,
              24.96078625563531
            ],
            [
              121.2067972792401,
              24.960846132973035
            ],
            [
              121.2067990272497,
              24.960849100886882
            ],
            [
              121.20681970782319,
              24.960891577839746
            ],
            [
              121.20674678346107,
              24.9609251112247
            ]
          ]
        ]
      }
    },
    {
      "type": "Feature",
      "id": "parcel-1006-471-7-boundary",
      "properties": {
        "kind": "cadastral-boundary",
        "parcelKey": "sanzuwu-sanzuwu-471-7",
        "parcelNo": "471-7",
        "sectionName": "三座屋段三座屋小段",
        "cadastralAreaM2": 102,
        "geometryAreaM2": 106.917,
        "sourceCrs": "EPSG:3826",
        "dxfHandle": "333",
        "analysisStatus": "interpreted-draft"
      },
      "geometry": {
        "type": "LineString",
        "coordinates": [
          [
            121.20674678346107,
            24.9609251112247
          ],
          [
            121.20670424381223,
            24.96083421824932
          ],
          [
            121.20666992226681,
            24.960759908041666
          ],
          [
            121.2066721556113,
            24.96075697974347
          ],
          [
            121.20671348308801,
            24.96078625563531
          ],
          [
            121.2067972792401,
            24.960846132973035
          ],
          [
            121.2067990272497,
            24.960849100886882
          ],
          [
            121.20681970782319,
            24.960891577839746
          ],
          [
            121.20674678346107,
            24.9609251112247
          ]
        ]
      }
    },
    {
      "type": "Feature",
      "id": "471-7-west-roof-0",
      "properties": {
        "kind": "occupancy-building",
        "parcelKey": "sanzuwu-sanzuwu-471-7",
        "parcelNo": "471-7",
        "analysisStatus": "interpreted-draft",
        "analysisVersion": "20261010-draft-v2-user-review",
        "targetId": "471-7-west-roof",
        "category": "建物／屋簷",
        "confidence": "medium",
        "sourceCrs": "EPSG:3826",
        "note": "西側平屋頂建物臨巷屋簷；以屋頂側輪廓限制範圍，排除牆外冷氣設備及停車。依使用者回饋補強牆面顯示，不擴大水平投影輪廓。",
        "displayWallContinuity": true
      },
      "geometry": {
        "type": "Polygon",
        "coordinates": [
          [
            [
              121.20674630476279,
              24.96089940779954
            ],
            [
              121.20674530433809,
              24.960893388510595
            ],
            [
              121.20674332284833,
              24.9608929398416
            ],
            [
              121.2067418327724,
              24.960890233392433
            ],
            [
              121.2067418274942,
              24.960887073462544
            ],
            [
              121.206746281793,
              24.96088565659304
            ],
            [
              121.20674014269663,
              24.960873984632784
            ],
            [
              121.20673685605097,
              24.960875343453836
            ],
            [
              121.20673436731371,
              24.96086767277519
            ],
            [
              121.20672990613535,
              24.960864970449997
            ],
            [
              121.20672890671999,
              24.960859554801992
            ],
            [
              121.2067274211686,
              24.960859556864
            ],
            [
              121.20672443875641,
              24.960852789709612
            ],
            [
              121.20672443649453,
              24.960851435453943
            ],
            [
              121.20672756793284,
              24.960850076848597
            ],
            [
              121.20672343481763,
              24.960844665550212
            ],
            [
              121.20672293395566,
              24.960841266491514
            ],
            [
              121.20671238331894,
              24.9608212070699
            ],
            [
              121.20671002640745,
              24.960821661760736
            ],
            [
              121.20671119702128,
              24.960818951618375
            ],
            [
              121.20670052034427,
              24.960798652554114
            ],
            [
              121.20669711393964,
              24.96079910870128
            ],
            [
              121.20669413605367,
              24.960795050057584
            ],
            [
              121.20668717333122,
              24.960777002936013
            ],
            [
              121.2066790861332,
              24.960779748906553
            ],
            [
              121.20670424381223,
              24.96083421824932
            ],
            [
              121.20673660244755,
              24.960903357823703
            ],
            [
              121.20674630476279,
              24.96089940779954
            ]
          ]
        ]
      }
    }
  ]
}