{
  "type": "FeatureCollection",
  "features": [
    {
      "type": "Feature",
      "id": "parcel-1006-646-2-fill",
      "properties": {
        "kind": "cadastral-fill",
        "parcelKey": "sanzuwu-sanzuwu-646-2",
        "parcelNo": "646-2",
        "sectionName": "三座屋段三座屋小段",
        "cadastralAreaM2": 221,
        "geometryAreaM2": 223.081,
        "sourceCrs": "EPSG:3826",
        "dxfHandle": "312",
        "analysisStatus": "interpreted-draft"
      },
      "geometry": {
        "type": "Polygon",
        "coordinates": [
          [
            [
              121.20964220025128,
              24.95910644723042
            ],
            [
              121.20963744392516,
              24.95910490104145
            ],
            [
              121.20962952890699,
              24.95910367529182
            ],
            [
              121.20952920848339,
              24.959058412664948
            ],
            [
              121.2095590445006,
              24.959044710730375
            ],
            [
              121.20956707895151,
              24.959040438024275
            ],
            [
              121.20957464623919,
              24.959035163823394
            ],
            [
              121.20958202187389,
              24.959027831418183
            ],
            [
              121.20958709076561,
              24.959020962706646
            ],
            [
              121.20959014109543,
              24.959015135100657
            ],
            [
              121.20959362053007,
              24.959005379539704
            ],
            [
              121.20959495122028,
              24.958995816598673
            ],
            [
              121.20959467900701,
              24.958987122639016
            ],
            [
              121.20959425394778,
              24.958981742314744
            ],
            [
              121.20959039192019,
              24.958970254604704
            ],
            [
              121.20955980171537,
              24.95890699958182
            ],
            [
              121.20961278405758,
              24.95883587157128
            ],
            [
              121.20963778744299,
              24.958888458372233
            ],
            [
              121.20968389721128,
              24.9589854351511
            ],
            [
              121.20964220025128,
              24.95910644723042
            ]
          ]
        ]
      }
    },
    {
      "type": "Feature",
      "id": "parcel-1006-646-2-boundary",
      "properties": {
        "kind": "cadastral-boundary",
        "parcelKey": "sanzuwu-sanzuwu-646-2",
        "parcelNo": "646-2",
        "sectionName": "三座屋段三座屋小段",
        "cadastralAreaM2": 221,
        "geometryAreaM2": 223.081,
        "sourceCrs": "EPSG:3826",
        "dxfHandle": "312",
        "analysisStatus": "interpreted-draft"
      },
      "geometry": {
        "type": "LineString",
        "coordinates": [
          [
            121.20964220025128,
            24.95910644723042
          ],
          [
            121.20963744392516,
            24.95910490104145
          ],
          [
            121.20962952890699,
            24.95910367529182
          ],
          [
            121.20952920848339,
            24.959058412664948
          ],
          [
            121.2095590445006,
            24.959044710730375
          ],
          [
            121.20956707895151,
            24.959040438024275
          ],
          [
            121.20957464623919,
            24.959035163823394
          ],
          [
            121.20958202187389,
            24.959027831418183
          ],
          [
            121.20958709076561,
            24.959020962706646
          ],
          [
            121.20959014109543,
            24.959015135100657
          ],
          [
            121.20959362053007,
            24.959005379539704
          ],
          [
            121.20959495122028,
            24.958995816598673
          ],
          [
            121.20959467900701,
            24.958987122639016
          ],
          [
            121.20959425394778,
            24.958981742314744
          ],
          [
            121.20959039192019,
            24.958970254604704
          ],
          [
            121.20955980171537,
            24.95890699958182
          ],
          [
            121.20961278405758,
            24.95883587157128
          ],
          [
            121.20963778744299,
            24.958888458372233
          ],
          [
            121.20968389721128,
            24.9589854351511
          ],
          [
            121.20964220025128,
            24.95910644723042
          ]
        ]
      }
    },
    {
      "type": "Feature",
      "id": "646-2-east-canopy-0",
      "properties": {
        "kind": "occupancy-building",
        "parcelKey": "sanzuwu-sanzuwu-646-2",
        "parcelNo": "646-2",
        "analysisStatus": "interpreted-draft",
        "analysisVersion": "20261010-draft-v2-user-review",
        "targetId": "646-2-east-canopy",
        "category": "棚架／雨遮",
        "confidence": "medium",
        "sourceCrs": "EPSG:3826",
        "note": "東側大片淺綠色遮棚的臨路前緣。",
        "displayWallContinuity": false
      },
      "geometry": {
        "type": "Polygon",
        "coordinates": [
          [
            [
              121.20963229884411,
              24.95888550127219
            ],
            [
              121.20964372764374,
              24.958908959008916
            ],
            [
              121.20964373299552,
              24.95891211893906
            ],
            [
              121.20965217927521,
              24.958928809578016
            ],
            [
              121.20965367550724,
              24.95893512734725
            ],
            [
              121.20965665038621,
              24.95893738025809
            ],
            [
              121.20966410325873,
              24.958952266615984
            ],
            [
              121.20967702906911,
              24.958982493537512
            ],
            [
              121.20967851459771,
              24.958982491446225
            ],
            [
              121.20968051113191,
              24.958978313649137
            ],
            [
              121.20963778744299,
              24.958888458372233
            ],
            [
              121.20963496467974,
              24.958882521575134
            ],
            [
              121.20963229884411,
              24.95888550127219
            ]
          ]
        ]
      }
    },
    {
      "type": "Feature",
      "id": "646-2-northwest-awning-0",
      "properties": {
        "kind": "occupancy-building",
        "parcelKey": "sanzuwu-sanzuwu-646-2",
        "parcelNo": "646-2",
        "analysisStatus": "interpreted-draft",
        "analysisVersion": "20261010-draft-v2-user-review",
        "targetId": "646-2-northwest-awning",
        "category": "雨遮",
        "confidence": "medium",
        "sourceCrs": "EPSG:3826",
        "note": "西北角低矮鐵皮雨遮。",
        "displayWallContinuity": false
      },
      "geometry": {
        "type": "Polygon",
        "coordinates": [
          [
            [
              121.20955928947707,
              24.95904901793136
            ],
            [
              121.20955774884648,
              24.95904530574858
            ],
            [
              121.20952920848339,
              24.959058412664948
            ],
            [
              121.20953364563093,
              24.959060414621877
            ],
            [
              121.20956078079018,
              24.959052432132516
            ],
            [
              121.2095607757707,
              24.959049467259824
            ],
            [
              121.20955928947707,
              24.95904901793136
            ]
          ]
        ]
      }
    }
  ]
}