{
  "type": "FeatureCollection",
  "features": [
    {
      "type": "Feature",
      "id": "parcel-1006-99-1-fill",
      "properties": {
        "kind": "cadastral-fill",
        "parcelKey": "sanzuwu-sanzuwu-99-1",
        "parcelNo": "99-1",
        "sectionName": "三座屋段三座屋小段",
        "cadastralAreaM2": 180,
        "geometryAreaM2": 180.693,
        "sourceCrs": "EPSG:3826",
        "dxfHandle": "33E",
        "analysisStatus": "interpreted-draft"
      },
      "geometry": {
        "type": "Polygon",
        "coordinates": [
          [
            [
              121.2078739641894,
              24.962947987236
            ],
            [
              121.2078392732042,
              24.962908048918823
            ],
            [
              121.207805773006,
              24.962869481246827
            ],
            [
              121.20777145079539,
              24.96283090568542
            ],
            [
              121.2077367186091,
              24.962789983306422
            ],
            [
              121.2077180533805,
              24.962768485660995
            ],
            [
              121.20778548313807,
              24.962729777175316
            ],
            [
              121.20789440832071,
              24.962855173942625
            ],
            [
              121.20790325344598,
              24.96288523515942
            ],
            [
              121.2078739641894,
              24.962947987236
            ]
          ]
        ]
      }
    },
    {
      "type": "Feature",
      "id": "parcel-1006-99-1-boundary",
      "properties": {
        "kind": "cadastral-boundary",
        "parcelKey": "sanzuwu-sanzuwu-99-1",
        "parcelNo": "99-1",
        "sectionName": "三座屋段三座屋小段",
        "cadastralAreaM2": 180,
        "geometryAreaM2": 180.693,
        "sourceCrs": "EPSG:3826",
        "dxfHandle": "33E",
        "analysisStatus": "interpreted-draft"
      },
      "geometry": {
        "type": "LineString",
        "coordinates": [
          [
            121.2078739641894,
            24.962947987236
          ],
          [
            121.2078392732042,
            24.962908048918823
          ],
          [
            121.207805773006,
            24.962869481246827
          ],
          [
            121.20777145079539,
            24.96283090568542
          ],
          [
            121.2077367186091,
            24.962789983306422
          ],
          [
            121.2077180533805,
            24.962768485660995
          ],
          [
            121.20778548313807,
            24.962729777175316
          ],
          [
            121.20789440832071,
            24.962855173942625
          ],
          [
            121.20790325344598,
            24.96288523515942
          ],
          [
            121.2078739641894,
            24.962947987236
          ]
        ]
      }
    },
    {
      "type": "Feature",
      "id": "99-1-west-frontage-0",
      "properties": {
        "kind": "occupancy-building",
        "parcelKey": "sanzuwu-sanzuwu-99-1",
        "parcelNo": "99-1",
        "analysisStatus": "interpreted-draft",
        "analysisVersion": "20261010-draft-v2-user-review",
        "targetId": "99-1-west-frontage",
        "category": "建物／棚架／雨遮",
        "confidence": "medium",
        "sourceCrs": "EPSG:3826",
        "note": "西側連續建物前緣、綠色伸縮雨遮及鐵皮屋簷；以影像可辨識的連續屋頂候選區納入。依使用者回饋補強上下層與牆面連續著色，同一水平投影不重複加總。",
        "displayWallContinuity": true
      },
      "geometry": {
        "type": "Polygon",
        "coordinates": [
          [
            [
              121.20785691700718,
              24.962911040778494
            ],
            [
              121.20785344080745,
              24.962905177177237
            ],
            [
              121.2078494732068,
              24.96290157135902
            ],
            [
              121.20784699724717,
              24.962901574814595
            ],
            [
              121.20784352180627,
              24.962896162631502
            ],
            [
              121.20782070204483,
              24.962871817826475
            ],
            [
              121.20781524204871,
              24.962864151314736
            ],
            [
              121.20781622636818,
              24.962860538585478
            ],
            [
              121.2078082888982,
              24.96285197269167
            ],
            [
              121.2078072932089,
              24.96284881414478
            ],
            [
              121.2078013425707,
              24.962843856833913
            ],
            [
              121.20779985093198,
              24.96284024755952
            ],
            [
              121.20779588333497,
              24.962836641739823
            ],
            [
              121.20779389347312,
              24.96283122748267
            ],
            [
              121.20779190891692,
              24.962828973154345
            ],
            [
              121.20778893776706,
              24.962828977299864
            ],
            [
              121.20778695396886,
              24.962827174389883
            ],
            [
              121.20778496562336,
              24.96282266296942
            ],
            [
              121.20776859474431,
              24.962805080450305
            ],
            [
              121.20776461957114,
              24.962796960445647
            ],
            [
              121.20775866514816,
              24.96278974604096
            ],
            [
              121.2077467661551,
              24.962781185670174
            ],
            [
              121.20773592631512,
              24.962789070783366
            ],
            [
              121.2077367186091,
              24.962789983306422
            ],
            [
              121.20777145079539,
              24.96283090568542
            ],
            [
              121.207805773006,
              24.962869481246827
            ],
            [
              121.2078392732042,
              24.962908048918823
            ],
            [
              121.20787370639921,
              24.96294769045281
            ],
            [
              121.2078738149503,
              24.96294758216902
            ],
            [
              121.20787418886287,
              24.96294750587456
            ],
            [
              121.20787935644373,
              24.96293643436498
            ],
            [
              121.20785691700718,
              24.962911040778494
            ]
          ]
        ]
      }
    }
  ]
}