{
  "type": "FeatureCollection",
  "features": [
    {
      "type": "Feature",
      "id": "parcel-1006-471-7-fill",
      "properties": {
        "kind": "cadastral-fill",
        "parcelKey": "sanzuwu-sanzuwu-471-7",
        "parcelNo": "471-7",
        "sectionName": "三座屋段三座屋小段",
        "cadastralAreaM2": 102,
        "geometryAreaM2": 106.917,
        "sourceCrs": "EPSG:3826",
        "dxfHandle": "333",
        "analysisStatus": "interpreted-draft"
      },
      "geometry": {
        "type": "Polygon",
        "coordinates": [
          [
            [
              121.20674678346107,
              24.9609251112247
            ],
            [
              121.20670424381223,
              24.96083421824932
            ],
            [
              121.20666992226681,
              24.960759908041666
            ],
            [
              121.2066721556113,
              24.96075697974347
            ],
            [
              121.20671348308801,
              24.96078625563531
            ],
            [
              121.2067972792401,
              24.960846132973035
            ],
            [
              121.2067990272497,
              24.960849100886882
            ],
            [
              121.20681970782319,
              24.960891577839746
            ],
            [
              121.20674678346107,
              24.9609251112247
            ]
          ]
        ]
      }
    },
    {
      "type": "Feature",
      "id": "parcel-1006-471-7-boundary",
      "properties": {
        "kind": "cadastral-boundary",
        "parcelKey": "sanzuwu-sanzuwu-471-7",
        "parcelNo": "471-7",
        "sectionName": "三座屋段三座屋小段",
        "cadastralAreaM2": 102,
        "geometryAreaM2": 106.917,
        "sourceCrs": "EPSG:3826",
        "dxfHandle": "333",
        "analysisStatus": "interpreted-draft"
      },
      "geometry": {
        "type": "LineString",
        "coordinates": [
          [
            121.20674678346107,
            24.9609251112247
          ],
          [
            121.20670424381223,
            24.96083421824932
          ],
          [
            121.20666992226681,
            24.960759908041666
          ],
          [
            121.2066721556113,
            24.96075697974347
          ],
          [
            121.20671348308801,
            24.96078625563531
          ],
          [
            121.2067972792401,
            24.960846132973035
          ],
          [
            121.2067990272497,
            24.960849100886882
          ],
          [
            121.20681970782319,
            24.960891577839746
          ],
          [
            121.20674678346107,
            24.9609251112247
          ]
        ]
      }
    },
    {
      "type": "Feature",
      "id": "471-7-west-roof-0",
      "properties": {
        "kind": "occupancy-building",
        "parcelKey": "sanzuwu-sanzuwu-471-7",
        "parcelNo": "471-7",
        "analysisStatus": "interpreted-draft",
        "analysisVersion": "20261010-draft-v2-user-review",
        "targetId": "471-7-west-roof",
        "category": "建物／屋簷",
        "confidence": "medium",
        "sourceCrs": "EPSG:3826",
        "note": "西側平屋頂建物臨巷屋簷；以屋頂側輪廓限制範圍，排除牆外冷氣設備及停車。依使用者回饋補強牆面顯示，不擴大水平投影輪廓。",
        "displayWallContinuity": true
      },
      "geometry": {
        "type": "Polygon",
        "coordinates": [
          [
            [
              121.20674630476279,
              24.96089940779954
            ],
            [
              121.20674530433809,
              24.960893388510595
            ],
            [
              121.20674332284833,
              24.9608929398416
            ],
            [
              121.2067418327724,
              24.960890233392433
            ],
            [
              121.2067418274942,
              24.960887073462544
            ],
            [
              121.206746281793,
              24.96088565659304
            ],
            [
              121.20674014269663,
              24.960873984632784
            ],
            [
              121.20673685605097,
              24.960875343453836
            ],
            [
              121.20673436731371,
              24.96086767277519
            ],
            [
              121.20672990613535,
              24.960864970449997
            ],
            [
              121.20672890671999,
              24.960859554801992
            ],
            [
              121.2067274211686,
              24.960859556864
            ],
            [
              121.20672443875641,
              24.960852789709612
            ],
            [
              121.20672443649453,
              24.960851435453943
            ],
            [
              121.20672756793284,
              24.960850076848597
            ],
            [
              121.20672343481763,
              24.960844665550212
            ],
            [
              121.20672293395566,
              24.960841266491514
            ],
            [
              121.20671238331894,
              24.9608212070699
            ],
            [
              121.20671002640745,
              24.960821661760736
            ],
            [
              121.20671119702128,
              24.960818951618375
            ],
            [
              121.20670052034427,
              24.960798652554114
            ],
            [
              121.20669711393964,
              24.96079910870128
            ],
            [
              121.20669413605367,
              24.960795050057584
            ],
            [
              121.20668717333122,
              24.960777002936013
            ],
            [
              121.2066790861332,
              24.960779748906553
            ],
            [
              121.20670424381223,
              24.96083421824932
            ],
            [
              121.20673660244755,
              24.960903357823703
            ],
            [
              121.20674630476279,
              24.96089940779954
            ]
          ]
        ]
      }
    },
    {
      "type": "Feature",
      "id": "parcel-1006-99-1-fill",
      "properties": {
        "kind": "cadastral-fill",
        "parcelKey": "sanzuwu-sanzuwu-99-1",
        "parcelNo": "99-1",
        "sectionName": "三座屋段三座屋小段",
        "cadastralAreaM2": 180,
        "geometryAreaM2": 180.693,
        "sourceCrs": "EPSG:3826",
        "dxfHandle": "33E",
        "analysisStatus": "interpreted-draft"
      },
      "geometry": {
        "type": "Polygon",
        "coordinates": [
          [
            [
              121.2078739641894,
              24.962947987236
            ],
            [
              121.2078392732042,
              24.962908048918823
            ],
            [
              121.207805773006,
              24.962869481246827
            ],
            [
              121.20777145079539,
              24.96283090568542
            ],
            [
              121.2077367186091,
              24.962789983306422
            ],
            [
              121.2077180533805,
              24.962768485660995
            ],
            [
              121.20778548313807,
              24.962729777175316
            ],
            [
              121.20789440832071,
              24.962855173942625
            ],
            [
              121.20790325344598,
              24.96288523515942
            ],
            [
              121.2078739641894,
              24.962947987236
            ]
          ]
        ]
      }
    },
    {
      "type": "Feature",
      "id": "parcel-1006-99-1-boundary",
      "properties": {
        "kind": "cadastral-boundary",
        "parcelKey": "sanzuwu-sanzuwu-99-1",
        "parcelNo": "99-1",
        "sectionName": "三座屋段三座屋小段",
        "cadastralAreaM2": 180,
        "geometryAreaM2": 180.693,
        "sourceCrs": "EPSG:3826",
        "dxfHandle": "33E",
        "analysisStatus": "interpreted-draft"
      },
      "geometry": {
        "type": "LineString",
        "coordinates": [
          [
            121.2078739641894,
            24.962947987236
          ],
          [
            121.2078392732042,
            24.962908048918823
          ],
          [
            121.207805773006,
            24.962869481246827
          ],
          [
            121.20777145079539,
            24.96283090568542
          ],
          [
            121.2077367186091,
            24.962789983306422
          ],
          [
            121.2077180533805,
            24.962768485660995
          ],
          [
            121.20778548313807,
            24.962729777175316
          ],
          [
            121.20789440832071,
            24.962855173942625
          ],
          [
            121.20790325344598,
            24.96288523515942
          ],
          [
            121.2078739641894,
            24.962947987236
          ]
        ]
      }
    },
    {
      "type": "Feature",
      "id": "99-1-west-frontage-0",
      "properties": {
        "kind": "occupancy-building",
        "parcelKey": "sanzuwu-sanzuwu-99-1",
        "parcelNo": "99-1",
        "analysisStatus": "interpreted-draft",
        "analysisVersion": "20261010-draft-v2-user-review",
        "targetId": "99-1-west-frontage",
        "category": "建物／棚架／雨遮",
        "confidence": "medium",
        "sourceCrs": "EPSG:3826",
        "note": "西側連續建物前緣、綠色伸縮雨遮及鐵皮屋簷；以影像可辨識的連續屋頂候選區納入。依使用者回饋補強上下層與牆面連續著色，同一水平投影不重複加總。",
        "displayWallContinuity": true
      },
      "geometry": {
        "type": "Polygon",
        "coordinates": [
          [
            [
              121.20785691700718,
              24.962911040778494
            ],
            [
              121.20785344080745,
              24.962905177177237
            ],
            [
              121.2078494732068,
              24.96290157135902
            ],
            [
              121.20784699724717,
              24.962901574814595
            ],
            [
              121.20784352180627,
              24.962896162631502
            ],
            [
              121.20782070204483,
              24.962871817826475
            ],
            [
              121.20781524204871,
              24.962864151314736
            ],
            [
              121.20781622636818,
              24.962860538585478
            ],
            [
              121.2078082888982,
              24.96285197269167
            ],
            [
              121.2078072932089,
              24.96284881414478
            ],
            [
              121.2078013425707,
              24.962843856833913
            ],
            [
              121.20779985093198,
              24.96284024755952
            ],
            [
              121.20779588333497,
              24.962836641739823
            ],
            [
              121.20779389347312,
              24.96283122748267
            ],
            [
              121.20779190891692,
              24.962828973154345
            ],
            [
              121.20778893776706,
              24.962828977299864
            ],
            [
              121.20778695396886,
              24.962827174389883
            ],
            [
              121.20778496562336,
              24.96282266296942
            ],
            [
              121.20776859474431,
              24.962805080450305
            ],
            [
              121.20776461957114,
              24.962796960445647
            ],
            [
              121.20775866514816,
              24.96278974604096
            ],
            [
              121.2077467661551,
              24.962781185670174
            ],
            [
              121.20773592631512,
              24.962789070783366
            ],
            [
              121.2077367186091,
              24.962789983306422
            ],
            [
              121.20777145079539,
              24.96283090568542
            ],
            [
              121.207805773006,
              24.962869481246827
            ],
            [
              121.2078392732042,
              24.962908048918823
            ],
            [
              121.20787370639921,
              24.96294769045281
            ],
            [
              121.2078738149503,
              24.96294758216902
            ],
            [
              121.20787418886287,
              24.96294750587456
            ],
            [
              121.20787935644373,
              24.96293643436498
            ],
            [
              121.20785691700718,
              24.962911040778494
            ]
          ]
        ]
      }
    },
    {
      "type": "Feature",
      "id": "parcel-1006-221-fill",
      "properties": {
        "kind": "cadastral-fill",
        "parcelKey": "sanzuwu-sanzuwu-221",
        "parcelNo": "221",
        "sectionName": "三座屋段三座屋小段",
        "cadastralAreaM2": 127,
        "geometryAreaM2": 134.396,
        "sourceCrs": "EPSG:3826",
        "dxfHandle": "2FB",
        "analysisStatus": "interpreted-draft"
      },
      "geometry": {
        "type": "Polygon",
        "coordinates": [
          [
            [
              121.20884842199769,
              24.961425945116662
            ],
            [
              121.20879807824261,
              24.96136544423241
            ],
            [
              121.20870743384597,
              24.961256535409266
            ],
            [
              121.2086744684472,
              24.9612178588331
            ],
            [
              121.20865807410497,
              24.961198055456236
            ],
            [
              121.20867334912927,
              24.96120011961321
            ],
            [
              121.20892952395612,
              24.961426066103126
            ],
            [
              121.20887668518827,
              24.96145991542771
            ],
            [
              121.20884842199769,
              24.961425945116662
            ]
          ]
        ]
      }
    },
    {
      "type": "Feature",
      "id": "parcel-1006-221-boundary",
      "properties": {
        "kind": "cadastral-boundary",
        "parcelKey": "sanzuwu-sanzuwu-221",
        "parcelNo": "221",
        "sectionName": "三座屋段三座屋小段",
        "cadastralAreaM2": 127,
        "geometryAreaM2": 134.396,
        "sourceCrs": "EPSG:3826",
        "dxfHandle": "2FB",
        "analysisStatus": "interpreted-draft"
      },
      "geometry": {
        "type": "LineString",
        "coordinates": [
          [
            121.20884842199769,
            24.961425945116662
          ],
          [
            121.20879807824261,
            24.96136544423241
          ],
          [
            121.20870743384597,
            24.961256535409266
          ],
          [
            121.2086744684472,
            24.9612178588331
          ],
          [
            121.20865807410497,
            24.961198055456236
          ],
          [
            121.20867334912927,
            24.96120011961321
          ],
          [
            121.20892952395612,
            24.961426066103126
          ],
          [
            121.20887668518827,
            24.96145991542771
          ],
          [
            121.20884842199769,
            24.961425945116662
          ]
        ]
      }
    },
    {
      "type": "Feature",
      "id": "221-west-eaves-0",
      "properties": {
        "kind": "occupancy-building",
        "parcelKey": "sanzuwu-sanzuwu-221",
        "parcelNo": "221",
        "analysisStatus": "interpreted-draft",
        "analysisVersion": "20261010-draft-v2-user-review",
        "targetId": "221-west-eaves",
        "category": "建物／雨遮",
        "confidence": "low",
        "sourceCrs": "EPSG:3826",
        "note": "西側建物前緣及窄雨遮；僅保留有高度與屋頂影像依據的部分。",
        "displayWallContinuity": false
      },
      "geometry": {
        "type": "Polygon",
        "coordinates": [
          [
            [
              121.20871417076604,
              24.961264629796148
            ],
            [
              121.20874431612377,
              24.961300849325504
            ],
            [
              121.20874356288941,
              24.96129778163725
            ],
            [
              121.20871627211709,
              24.9612648662588
            ],
            [
              121.20871417076604,
              24.961264629796148
            ]
          ]
        ]
      }
    },
    {
      "type": "Feature",
      "id": "221-west-eaves-1",
      "properties": {
        "kind": "occupancy-building",
        "parcelKey": "sanzuwu-sanzuwu-221",
        "parcelNo": "221",
        "analysisStatus": "interpreted-draft",
        "analysisVersion": "20261010-draft-v2-user-review",
        "targetId": "221-west-eaves",
        "category": "建物／雨遮",
        "confidence": "low",
        "sourceCrs": "EPSG:3826",
        "note": "西側建物前緣及窄雨遮；僅保留有高度與屋頂影像依據的部分。",
        "displayWallContinuity": false
      },
      "geometry": {
        "type": "Polygon",
        "coordinates": [
          [
            [
              121.20874527855416,
              24.961302005681446
            ],
            [
              121.20877194523194,
              24.961334045566637
            ],
            [
              121.20877283594164,
              24.961331597070814
            ],
            [
              121.20874852311921,
              24.96130274029987
            ],
            [
              121.20874527855416,
              24.961302005681446
            ]
          ]
        ]
      }
    },
    {
      "type": "Feature",
      "id": "221-west-eaves-2",
      "properties": {
        "kind": "occupancy-building",
        "parcelKey": "sanzuwu-sanzuwu-221",
        "parcelNo": "221",
        "analysisStatus": "interpreted-draft",
        "analysisVersion": "20261010-draft-v2-user-review",
        "targetId": "221-west-eaves",
        "category": "建物／雨遮",
        "confidence": "low",
        "sourceCrs": "EPSG:3826",
        "note": "西側建物前緣及窄雨遮；僅保留有高度與屋頂影像依據的部分。",
        "displayWallContinuity": false
      },
      "geometry": {
        "type": "Polygon",
        "coordinates": [
          [
            [
              121.2087768058027,
              24.96133655712075
            ],
            [
              121.20877432606724,
              24.961334303499182
            ],
            [
              121.20877216243265,
              24.96133430653216
            ],
            [
              121.20879055101386,
              24.961356400311413
            ],
            [
              121.20879119969298,
              24.96135639940202
            ],
            [
              121.20879120101195,
              24.96135718128037
            ],
            [
              121.20879265466257,
              24.961358927833125
            ],
            [
              121.20879318348196,
              24.961358202299046
            ],
            [
              121.2087926844886,
              24.961355945900912
            ],
            [
              121.2087768058027,
              24.96133655712075
            ]
          ]
        ]
      }
    },
    {
      "type": "Feature",
      "id": "221-west-eaves-3",
      "properties": {
        "kind": "occupancy-building",
        "parcelKey": "sanzuwu-sanzuwu-221",
        "parcelNo": "221",
        "analysisStatus": "interpreted-draft",
        "analysisVersion": "20261010-draft-v2-user-review",
        "targetId": "221-west-eaves",
        "category": "建物／雨遮",
        "confidence": "low",
        "sourceCrs": "EPSG:3826",
        "note": "西側建物前緣及窄雨遮；僅保留有高度與屋頂影像依據的部分。",
        "displayWallContinuity": false
      },
      "geometry": {
        "type": "Polygon",
        "coordinates": [
          [
            [
              121.20882394516622,
              24.96139382131332
            ],
            [
              121.20882394135802,
              24.96139156422099
            ],
            [
              121.20882591981652,
              24.961390207188305
            ],
            [
              121.20882492335168,
              24.961386597229232
            ],
            [
              121.20882194995177,
              24.96138524713974
            ],
            [
              121.20881797704088,
              24.961378481417196
            ],
            [
              121.20881450769383,
              24.96137668060338
            ],
            [
              121.20881450464742,
              24.96137487492951
            ],
            [
              121.20881054011474,
              24.961373074809888
            ],
            [
              121.2088105355452,
              24.961370366299093
            ],
            [
              121.20880706696005,
              24.961369016903564
            ],
            [
              121.20880656644329,
              24.96136585766856
            ],
            [
              121.20880409051449,
              24.96136586113984
            ],
            [
              121.20880310318923,
              24.961367668202215
            ],
            [
              121.2088005721211,
              24.961368441266412
            ],
            [
              121.20884842199769,
              24.961425945116662
            ],
            [
              121.20885024798909,
              24.961428139827
            ],
            [
              121.20885024486199,
              24.961426286641444
            ],
            [
              121.20884577676225,
              24.9614195216141
            ],
            [
              121.20882394516622,
              24.96139382131332
            ]
          ]
        ]
      }
    },
    {
      "type": "Feature",
      "id": "parcel-1006-239-1-fill",
      "properties": {
        "kind": "cadastral-fill",
        "parcelKey": "sanzuwu-sanzuwu-239-1",
        "parcelNo": "239-1",
        "sectionName": "三座屋段三座屋小段",
        "cadastralAreaM2": 228,
        "geometryAreaM2": 227.399,
        "sourceCrs": "EPSG:3826",
        "dxfHandle": "306",
        "analysisStatus": "interpreted-draft"
      },
      "geometry": {
        "type": "Polygon",
        "coordinates": [
          [
            [
              121.20934994532898,
              24.961500745412806
            ],
            [
              121.20925945733907,
              24.9614729748557
            ],
            [
              121.20929859916578,
              24.961445004070583
            ],
            [
              121.20935249141526,
              24.96140755078822
            ],
            [
              121.20937913049727,
              24.96138881554299
            ],
            [
              121.20947282066679,
              24.961383429274488
            ],
            [
              121.2094896039836,
              24.961311133402226
            ],
            [
              121.20950896255961,
              24.961297527471782
            ],
            [
              121.2096181065969,
              24.961312117256806
            ],
            [
              121.20934994532898,
              24.961500745412806
            ]
          ]
        ]
      }
    },
    {
      "type": "Feature",
      "id": "parcel-1006-239-1-boundary",
      "properties": {
        "kind": "cadastral-boundary",
        "parcelKey": "sanzuwu-sanzuwu-239-1",
        "parcelNo": "239-1",
        "sectionName": "三座屋段三座屋小段",
        "cadastralAreaM2": 228,
        "geometryAreaM2": 227.399,
        "sourceCrs": "EPSG:3826",
        "dxfHandle": "306",
        "analysisStatus": "interpreted-draft"
      },
      "geometry": {
        "type": "LineString",
        "coordinates": [
          [
            121.20934994532898,
            24.961500745412806
          ],
          [
            121.20925945733907,
            24.9614729748557
          ],
          [
            121.20929859916578,
            24.961445004070583
          ],
          [
            121.20935249141526,
            24.96140755078822
          ],
          [
            121.20937913049727,
            24.96138881554299
          ],
          [
            121.20947282066679,
            24.961383429274488
          ],
          [
            121.2094896039836,
            24.961311133402226
          ],
          [
            121.20950896255961,
            24.961297527471782
          ],
          [
            121.2096181065969,
            24.961312117256806
          ],
          [
            121.20934994532898,
            24.961500745412806
          ]
        ]
      }
    },
    {
      "type": "Feature",
      "id": "239-1-west-canopy-0",
      "properties": {
        "kind": "occupancy-building",
        "parcelKey": "sanzuwu-sanzuwu-239-1",
        "parcelNo": "239-1",
        "analysisStatus": "interpreted-draft",
        "analysisVersion": "20261010-draft-v2-user-review",
        "targetId": "239-1-west-canopy",
        "category": "棚架／雨遮",
        "confidence": "medium",
        "sourceCrs": "EPSG:3826",
        "note": "西北側綠色連續遮棚，排除北端樹冠。",
        "displayWallContinuity": false
      },
      "geometry": {
        "type": "Polygon",
        "coordinates": [
          [
            [
              121.20932959253331,
              24.96143012786824
            ],
            [
              121.20932760949889,
              24.961428776396886
            ],
            [
              121.20932859639215,
              24.96142671816595
            ],
            [
              121.209270746925,
              24.96146490730964
            ],
            [
              121.2092685824686,
              24.961466454031882
            ],
            [
              121.20926825587306,
              24.961469487564774
            ],
            [
              121.20927221583577,
              24.961468579161437
            ],
            [
              121.20927320239166,
              24.961466320677573
            ],
            [
              121.2092756783224,
              24.961466317198482
            ],
            [
              121.20927766441002,
              24.961469474344312
            ],
            [
              121.20930685214739,
              24.961452730804957
            ],
            [
              121.20933009917157,
              24.96143689844896
            ],
            [
              121.20932860750564,
              24.96143328918938
            ],
            [
              121.20932959253331,
              24.96143012786824
            ]
          ]
        ]
      }
    },
    {
      "type": "Feature",
      "id": "239-1-south-roof-0",
      "properties": {
        "kind": "occupancy-building",
        "parcelKey": "sanzuwu-sanzuwu-239-1",
        "parcelNo": "239-1",
        "analysisStatus": "interpreted-draft",
        "analysisVersion": "20261010-draft-v2-user-review",
        "targetId": "239-1-south-roof",
        "category": "建物／屋簷",
        "confidence": "medium",
        "sourceCrs": "EPSG:3826",
        "note": "南側大型鐵皮屋頂北緣跨入地籍的部分。",
        "displayWallContinuity": false
      },
      "geometry": {
        "type": "Polygon",
        "coordinates": [
          [
            [
              121.20940429458952,
              24.96138804083768
            ],
            [
              121.20940499561682,
              24.961387328557496
            ],
            [
              121.20938457529692,
              24.961388502521878
            ],
            [
              121.20936755555147,
              24.961396956194477
            ],
            [
              121.20935249141526,
              24.96140755078822
            ],
            [
              121.20934057093308,
              24.961415835121965
            ],
            [
              121.20934128562824,
              24.96141792310565
            ],
            [
              121.20934936943101,
              24.961412043288945
            ],
            [
              121.20935234054654,
              24.96141203911252
            ],
            [
              121.2093563104333,
              24.961416999146785
            ],
            [
              121.20935855180124,
              24.961416995996053
            ],
            [
              121.20937511410109,
              24.961409052635346
            ],
            [
              121.20940429458952,
              24.96138804083768
            ]
          ]
        ]
      }
    },
    {
      "type": "Feature",
      "id": "239-1-southeast-roof-0",
      "properties": {
        "kind": "occupancy-building",
        "parcelKey": "sanzuwu-sanzuwu-239-1",
        "parcelNo": "239-1",
        "analysisStatus": "interpreted-draft",
        "analysisVersion": "20261010-draft-v2-user-review",
        "targetId": "239-1-southeast-roof",
        "category": "建物／屋簷",
        "confidence": "medium",
        "sourceCrs": "EPSG:3826",
        "note": "東南側相接鐵皮屋頂前緣。",
        "displayWallContinuity": false
      },
      "geometry": {
        "type": "Polygon",
        "coordinates": [
          [
            [
              121.20949826069736,
              24.961317487242866
            ],
            [
              121.20950321178867,
              24.96131702885874
            ],
            [
              121.209505187182,
              24.961313866143275
            ],
            [
              121.20950815753102,
              24.961313410545305
            ],
            [
              121.20951310098063,
              24.961308437976356
            ],
            [
              121.20951706017219,
              24.961307078148078
            ],
            [
              121.20951903632916,
              24.96130436685088
            ],
            [
              121.20952599102586,
              24.961299803750613
            ],
            [
              121.20950896255961,
              24.961297527471782
            ],
            [
              121.2094896039836,
              24.961311133402226
            ],
            [
              121.20948612505562,
              24.96132611925124
            ],
            [
              121.20949826069736,
              24.961317487242866
            ]
          ]
        ]
      }
    },
    {
      "type": "Feature",
      "id": "parcel-1006-646-2-fill",
      "properties": {
        "kind": "cadastral-fill",
        "parcelKey": "sanzuwu-sanzuwu-646-2",
        "parcelNo": "646-2",
        "sectionName": "三座屋段三座屋小段",
        "cadastralAreaM2": 221,
        "geometryAreaM2": 223.081,
        "sourceCrs": "EPSG:3826",
        "dxfHandle": "312",
        "analysisStatus": "interpreted-draft"
      },
      "geometry": {
        "type": "Polygon",
        "coordinates": [
          [
            [
              121.20964220025128,
              24.95910644723042
            ],
            [
              121.20963744392516,
              24.95910490104145
            ],
            [
              121.20962952890699,
              24.95910367529182
            ],
            [
              121.20952920848339,
              24.959058412664948
            ],
            [
              121.2095590445006,
              24.959044710730375
            ],
            [
              121.20956707895151,
              24.959040438024275
            ],
            [
              121.20957464623919,
              24.959035163823394
            ],
            [
              121.20958202187389,
              24.959027831418183
            ],
            [
              121.20958709076561,
              24.959020962706646
            ],
            [
              121.20959014109543,
              24.959015135100657
            ],
            [
              121.20959362053007,
              24.959005379539704
            ],
            [
              121.20959495122028,
              24.958995816598673
            ],
            [
              121.20959467900701,
              24.958987122639016
            ],
            [
              121.20959425394778,
              24.958981742314744
            ],
            [
              121.20959039192019,
              24.958970254604704
            ],
            [
              121.20955980171537,
              24.95890699958182
            ],
            [
              121.20961278405758,
              24.95883587157128
            ],
            [
              121.20963778744299,
              24.958888458372233
            ],
            [
              121.20968389721128,
              24.9589854351511
            ],
            [
              121.20964220025128,
              24.95910644723042
            ]
          ]
        ]
      }
    },
    {
      "type": "Feature",
      "id": "parcel-1006-646-2-boundary",
      "properties": {
        "kind": "cadastral-boundary",
        "parcelKey": "sanzuwu-sanzuwu-646-2",
        "parcelNo": "646-2",
        "sectionName": "三座屋段三座屋小段",
        "cadastralAreaM2": 221,
        "geometryAreaM2": 223.081,
        "sourceCrs": "EPSG:3826",
        "dxfHandle": "312",
        "analysisStatus": "interpreted-draft"
      },
      "geometry": {
        "type": "LineString",
        "coordinates": [
          [
            121.20964220025128,
            24.95910644723042
          ],
          [
            121.20963744392516,
            24.95910490104145
          ],
          [
            121.20962952890699,
            24.95910367529182
          ],
          [
            121.20952920848339,
            24.959058412664948
          ],
          [
            121.2095590445006,
            24.959044710730375
          ],
          [
            121.20956707895151,
            24.959040438024275
          ],
          [
            121.20957464623919,
            24.959035163823394
          ],
          [
            121.20958202187389,
            24.959027831418183
          ],
          [
            121.20958709076561,
            24.959020962706646
          ],
          [
            121.20959014109543,
            24.959015135100657
          ],
          [
            121.20959362053007,
            24.959005379539704
          ],
          [
            121.20959495122028,
            24.958995816598673
          ],
          [
            121.20959467900701,
            24.958987122639016
          ],
          [
            121.20959425394778,
            24.958981742314744
          ],
          [
            121.20959039192019,
            24.958970254604704
          ],
          [
            121.20955980171537,
            24.95890699958182
          ],
          [
            121.20961278405758,
            24.95883587157128
          ],
          [
            121.20963778744299,
            24.958888458372233
          ],
          [
            121.20968389721128,
            24.9589854351511
          ],
          [
            121.20964220025128,
            24.95910644723042
          ]
        ]
      }
    },
    {
      "type": "Feature",
      "id": "646-2-east-canopy-0",
      "properties": {
        "kind": "occupancy-building",
        "parcelKey": "sanzuwu-sanzuwu-646-2",
        "parcelNo": "646-2",
        "analysisStatus": "interpreted-draft",
        "analysisVersion": "20261010-draft-v2-user-review",
        "targetId": "646-2-east-canopy",
        "category": "棚架／雨遮",
        "confidence": "medium",
        "sourceCrs": "EPSG:3826",
        "note": "東側大片淺綠色遮棚的臨路前緣。",
        "displayWallContinuity": false
      },
      "geometry": {
        "type": "Polygon",
        "coordinates": [
          [
            [
              121.20963229884411,
              24.95888550127219
            ],
            [
              121.20964372764374,
              24.958908959008916
            ],
            [
              121.20964373299552,
              24.95891211893906
            ],
            [
              121.20965217927521,
              24.958928809578016
            ],
            [
              121.20965367550724,
              24.95893512734725
            ],
            [
              121.20965665038621,
              24.95893738025809
            ],
            [
              121.20966410325873,
              24.958952266615984
            ],
            [
              121.20967702906911,
              24.958982493537512
            ],
            [
              121.20967851459771,
              24.958982491446225
            ],
            [
              121.20968051113191,
              24.958978313649137
            ],
            [
              121.20963778744299,
              24.958888458372233
            ],
            [
              121.20963496467974,
              24.958882521575134
            ],
            [
              121.20963229884411,
              24.95888550127219
            ]
          ]
        ]
      }
    },
    {
      "type": "Feature",
      "id": "646-2-northwest-awning-0",
      "properties": {
        "kind": "occupancy-building",
        "parcelKey": "sanzuwu-sanzuwu-646-2",
        "parcelNo": "646-2",
        "analysisStatus": "interpreted-draft",
        "analysisVersion": "20261010-draft-v2-user-review",
        "targetId": "646-2-northwest-awning",
        "category": "雨遮",
        "confidence": "medium",
        "sourceCrs": "EPSG:3826",
        "note": "西北角低矮鐵皮雨遮。",
        "displayWallContinuity": false
      },
      "geometry": {
        "type": "Polygon",
        "coordinates": [
          [
            [
              121.20955928947707,
              24.95904901793136
            ],
            [
              121.20955774884648,
              24.95904530574858
            ],
            [
              121.20952920848339,
              24.959058412664948
            ],
            [
              121.20953364563093,
              24.959060414621877
            ],
            [
              121.20956078079018,
              24.959052432132516
            ],
            [
              121.2095607757707,
              24.959049467259824
            ],
            [
              121.20955928947707,
              24.95904901793136
            ]
          ]
        ]
      }
    },
    {
      "type": "Feature",
      "id": "parcel-1006-1051-1-fill",
      "properties": {
        "kind": "cadastral-fill",
        "parcelKey": "sanzuwu-sanzuwu-1051-1",
        "parcelNo": "1051-1",
        "sectionName": "三座屋段三座屋小段",
        "cadastralAreaM2": 84,
        "geometryAreaM2": 84.426,
        "sourceCrs": "EPSG:3826",
        "dxfHandle": "328",
        "analysisStatus": "interpreted-draft"
      },
      "geometry": {
        "type": "Polygon",
        "coordinates": [
          [
            [
              121.21049727707977,
              24.957116827726807
            ],
            [
              121.21041730967701,
              24.957089187428004
            ],
            [
              121.210420664434,
              24.95708772008879
            ],
            [
              121.21046581925948,
              24.957067504914363
            ],
            [
              121.21044077208857,
              24.95702002385892
            ],
            [
              121.21059391084951,
              24.957073968766846
            ],
            [
              121.2105564842652,
              24.957090462385192
            ],
            [
              121.21050994383387,
              24.957111185135425
            ],
            [
              121.21049727707977,
              24.957116827726807
            ]
          ]
        ]
      }
    },
    {
      "type": "Feature",
      "id": "parcel-1006-1051-1-boundary",
      "properties": {
        "kind": "cadastral-boundary",
        "parcelKey": "sanzuwu-sanzuwu-1051-1",
        "parcelNo": "1051-1",
        "sectionName": "三座屋段三座屋小段",
        "cadastralAreaM2": 84,
        "geometryAreaM2": 84.426,
        "sourceCrs": "EPSG:3826",
        "dxfHandle": "328",
        "analysisStatus": "interpreted-draft"
      },
      "geometry": {
        "type": "LineString",
        "coordinates": [
          [
            121.21049727707977,
            24.957116827726807
          ],
          [
            121.21041730967701,
            24.957089187428004
          ],
          [
            121.210420664434,
            24.95708772008879
          ],
          [
            121.21046581925948,
            24.957067504914363
          ],
          [
            121.21044077208857,
            24.95702002385892
          ],
          [
            121.21059391084951,
            24.957073968766846
          ],
          [
            121.2105564842652,
            24.957090462385192
          ],
          [
            121.21050994383387,
            24.957111185135425
          ],
          [
            121.21049727707977,
            24.957116827726807
          ]
        ]
      }
    },
    {
      "type": "Feature",
      "id": "1051-1-north-roof-0",
      "properties": {
        "kind": "occupancy-building",
        "parcelKey": "sanzuwu-sanzuwu-1051-1",
        "parcelNo": "1051-1",
        "analysisStatus": "interpreted-draft",
        "analysisVersion": "20261010-draft-v2-user-review",
        "targetId": "1051-1-north-roof",
        "category": "建物／屋簷",
        "confidence": "low",
        "sourceCrs": "EPSG:3826",
        "note": "北側淺綠色屋頂及檐口。依使用者要求排除電線桿：局部 LAS 屋頂約離地 8.3–8.6 m，桿件／橫臂約 9.6–9.8 m；9 m 以上高點投影外擴 15 cm 作排除遮罩，仍待影像與現地複核。",
        "displayWallContinuity": false
      },
      "geometry": {
        "type": "Polygon",
        "coordinates": [
          [
            [
              121.21054232815627,
              24.95709361998292
            ],
            [
              121.2105423289722,
              24.957093622930525
            ],
            [
              121.21054235058705,
              24.95709375435341
            ],
            [
              121.2105423519144,
              24.95709377782536
            ],
            [
              121.21054241796345,
              24.957093832173225
            ],
            [
              121.2105425159763,
              24.957093930534473
            ],
            [
              121.21054260301037,
              24.95709403712708
            ],
            [
              121.21054263508103,
              24.957094085744792
            ],
            [
              121.2105426885098,
              24.95709411483099
            ],
            [
              121.21054280570233,
              24.957094193844377
            ],
            [
              121.21054291389981,
              24.95709428289198
            ],
            [
              121.21054301191268,
              24.95709438125323
            ],
            [
              121.21054309894676,
              24.95709448784584
            ],
            [
              121.21054317410922,
              24.957094601768226
            ],
            [
              121.21054323660579,
              24.957094721847827
            ],
            [
              121.21054328593935,
              24.95709484691165
            ],
            [
              121.21054332161268,
              24.957094975786713
            ],
            [
              121.21054334322756,
              24.95709510720959
            ],
            [
              121.2105433445549,
              24.957095130681548
            ],
            [
              121.21054341060396,
              24.95709518502941
            ],
            [
              121.2105435086168,
              24.95709528339066
            ],
            [
              121.21054359565088,
              24.95709538998326
            ],
            [
              121.21054367081334,
              24.95709550390566
            ],
            [
              121.21054373330993,
              24.95709562398525
            ],
            [
              121.21054378264347,
              24.957095749049074
            ],
            [
              121.21054381831682,
              24.95709587792414
            ],
            [
              121.21054383993167,
              24.95709600934702
            ],
            [
              121.21054384442704,
              24.95709609044451
            ],
            [
              121.2105564842652,
              24.957090462385192
            ],
            [
              121.21056454826996,
              24.957086908639226
            ],
            [
              121.21056413230895,
              24.95708618214486
            ],
            [
              121.21054232815627,
              24.95709361998292
            ]
          ]
        ]
      }
    },
    {
      "type": "Feature",
      "id": "1051-1-north-roof-1",
      "properties": {
        "kind": "occupancy-building",
        "parcelKey": "sanzuwu-sanzuwu-1051-1",
        "parcelNo": "1051-1",
        "analysisStatus": "interpreted-draft",
        "analysisVersion": "20261010-draft-v2-user-review",
        "targetId": "1051-1-north-roof",
        "category": "建物／屋簷",
        "confidence": "low",
        "sourceCrs": "EPSG:3826",
        "note": "北側淺綠色屋頂及檐口。依使用者要求排除電線桿：局部 LAS 屋頂約離地 8.3–8.6 m，桿件／橫臂約 9.6–9.8 m；9 m 以上高點投影外擴 15 cm 作排除遮罩，仍待影像與現地複核。",
        "displayWallContinuity": false
      },
      "geometry": {
        "type": "Polygon",
        "coordinates": [
          [
            [
              121.21053599384061,
              24.95709925476963
            ],
            [
              121.21053595816726,
              24.957099125894572
            ],
            [
              121.21053593655242,
              24.957098994471693
            ],
            [
              121.21053592919627,
              24.957098861764678
            ],
            [
              121.21053592860619,
              24.957098514804287
            ],
            [
              121.21053586840826,
              24.957098465233198
            ],
            [
              121.21053577039542,
              24.957098366871946
            ],
            [
              121.21053568336136,
              24.95709826027933
            ],
            [
              121.21053560819892,
              24.957098146356937
            ],
            [
              121.21053554570231,
              24.95709802627733
            ],
            [
              121.21053549636878,
              24.957097901213505
            ],
            [
              121.21053546069545,
              24.957097772338443
            ],
            [
              121.2105354390806,
              24.95709764091556
            ],
            [
              121.21053543775325,
              24.95709761744361
            ],
            [
              121.2105353717042,
              24.957097563095743
            ],
            [
              121.21053527369136,
              24.95709746473449
            ],
            [
              121.21053518665728,
              24.957097358141873
            ],
            [
              121.21053511149482,
              24.957097244219486
            ],
            [
              121.21053504899825,
              24.957097124139874
            ],
            [
              121.2105350374142,
              24.957097094773584
            ],
            [
              121.21053444215492,
              24.95709796102701
            ],
            [
              121.21052884153754,
              24.957100523820966
            ],
            [
              121.21052888669612,
              24.95710061058769
            ],
            [
              121.21052893602965,
              24.957100735651522
            ],
            [
              121.21052897170298,
              24.95710086452658
            ],
            [
              121.21052899331784,
              24.95710099594947
            ],
            [
              121.21052900067394,
              24.957101128656483
            ],
            [
              121.21052900220937,
              24.957102031493832
            ],
            [
              121.21052899530463,
              24.957102164221002
            ],
            [
              121.21052897413692,
              24.957102295704356
            ],
            [
              121.2105289389021,
              24.95710242467964
            ],
            [
              121.21052888999418,
              24.957102549882325
            ],
            [
              121.21052882790632,
              24.95710267013802
            ],
            [
              121.2105287531317,
              24.957102784272337
            ],
            [
              121.2105287203996,
              24.957102824620698
            ],
            [
              121.21053612419078,
              24.95709952798359
            ],
            [
              121.21053610567073,
              24.957099499913067
            ],
            [
              121.21053604317414,
              24.95709937983346
            ],
            [
              121.21053599384061,
              24.95709925476963
            ]
          ]
        ]
      }
    },
    {
      "type": "Feature",
      "id": "1051-1-north-roof-2",
      "properties": {
        "kind": "occupancy-building",
        "parcelKey": "sanzuwu-sanzuwu-1051-1",
        "parcelNo": "1051-1",
        "analysisStatus": "interpreted-draft",
        "analysisVersion": "20261010-draft-v2-user-review",
        "targetId": "1051-1-north-roof",
        "category": "建物／屋簷",
        "confidence": "low",
        "sourceCrs": "EPSG:3826",
        "note": "北側淺綠色屋頂及檐口。依使用者要求排除電線桿：局部 LAS 屋頂約離地 8.3–8.6 m，桿件／橫臂約 9.6–9.8 m；9 m 以上高點投影外擴 15 cm 作排除遮罩，仍待影像與現地複核。",
        "displayWallContinuity": false
      },
      "geometry": {
        "type": "Polygon",
        "coordinates": [
          [
            [
              121.21050994383387,
              24.957111185135425
            ],
            [
              121.21052745526316,
              24.957103387939572
            ],
            [
              121.21052603350059,
              24.957103389949076
            ],
            [
              121.21052588790994,
              24.957103383654417
            ],
            [
              121.21052574368366,
              24.95710336435693
            ],
            [
              121.21052560220852,
              24.957103332235242
            ],
            [
              121.21052546487164,
              24.9571032876485
            ],
            [
              121.21052533296115,
              24.957103231046343
            ],
            [
              121.21052520776534,
              24.957103162878333
            ],
            [
              121.21052509057282,
              24.95710308386495
            ],
            [
              121.2105249823753,
              24.95710299481733
            ],
            [
              121.21052492781355,
              24.95710294009209
            ],
            [
              121.21052454722692,
              24.95710294063
            ],
            [
              121.2105244016363,
              24.95710293433533
            ],
            [
              121.21052425741003,
              24.95710291503784
            ],
            [
              121.21052411593489,
              24.95710288291614
            ],
            [
              121.210523978598,
              24.957102838329416
            ],
            [
              121.21052384668752,
              24.957102781727247
            ],
            [
              121.21052372149171,
              24.957102713559248
            ],
            [
              121.21052360429918,
              24.957102634545855
            ],
            [
              121.21052349610167,
              24.957102545498234
            ],
            [
              121.21052343628207,
              24.957102485453667
            ],
            [
              121.21052341053132,
              24.957102484316376
            ],
            [
              121.21052326630505,
              24.957102465018885
            ],
            [
              121.2105231248299,
              24.95710243289719
            ],
            [
              121.21052298749302,
              24.957102388310453
            ],
            [
              121.21052285558254,
              24.957102331708285
            ],
            [
              121.21052273038671,
              24.957102263540282
            ],
            [
              121.2105226131942,
              24.95710218452689
            ],
            [
              121.21052250499672,
              24.957102095479268
            ],
            [
              121.21052245043496,
              24.957102040754027
            ],
            [
              121.21052206984834,
              24.957102041291936
            ],
            [
              121.2105219242577,
              24.957102034997266
            ],
            [
              121.21052178003143,
              24.957102015699768
            ],
            [
              121.21052163855629,
              24.957101983578067
            ],
            [
              121.21052150121938,
              24.95710193899134
            ],
            [
              121.21052136930892,
              24.95710188238917
            ],
            [
              121.21052124411311,
              24.957101814221165
            ],
            [
              121.21052112692058,
              24.95710173520778
            ],
            [
              121.21052101872307,
              24.957101646160147
            ],
            [
              121.21052095890349,
              24.95710158611558
            ],
            [
              121.21052093315272,
              24.957101584978282
            ],
            [
              121.21052078892644,
              24.957101565680798
            ],
            [
              121.21052064745133,
              24.957101533559097
            ],
            [
              121.21052051011442,
              24.957101488972356
            ],
            [
              121.21052037820397,
              24.95710143237019
            ],
            [
              121.21052025300813,
              24.957101364202185
            ],
            [
              121.21052013581563,
              24.957101285188788
            ],
            [
              121.21052005575562,
              24.957101219298597
            ],
            [
              121.2105136542843,
              24.957103407445224
            ],
            [
              121.21051118074398,
              24.957104765200352
            ],
            [
              121.21051118611746,
              24.957107925131083
            ],
            [
              121.21050871334464,
              24.957109734304854
            ],
            [
              121.21050475045999,
              24.95710883706592
            ],
            [
              121.21050433398135,
              24.957106580555706
            ],
            [
              121.21049336407911,
              24.9571103226064
            ],
            [
              121.21049485860027,
              24.957115622341647
            ],
            [
              121.21049439436709,
              24.95711583133377
            ],
            [
              121.21049727707977,
              24.957116827726807
            ],
            [
              121.21050994383387,
              24.957111185135425
            ]
          ]
        ]
      }
    }
  ]
}