{
  "type": "FeatureCollection",
  "analysisStatus": "interpreted-draft",
  "sourceCrs": "EPSG:3826",
  "features": [
    {
      "type": "Feature",
      "id": "471-7-west-roof-0",
      "properties": {
        "kind": "occupancy-building",
        "parcelKey": "sanzuwu-sanzuwu-471-7",
        "parcelNo": "471-7",
        "analysisStatus": "interpreted-draft",
        "analysisVersion": "20261010-draft-v2-user-review",
        "targetId": "471-7-west-roof",
        "category": "建物／屋簷",
        "confidence": "medium",
        "sourceCrs": "EPSG:3826",
        "note": "西側平屋頂建物臨巷屋簷；以屋頂側輪廓限制範圍，排除牆外冷氣設備及停車。依使用者回饋補強牆面顯示，不擴大水平投影輪廓。",
        "displayWallContinuity": true
      },
      "geometry": {
        "type": "Polygon",
        "coordinates": [
          [
            [
              270875.6,
              2761462.616860465
            ],
            [
              270875.5,
              2761461.95
            ],
            [
              270875.3,
              2761461.9
            ],
            [
              270875.15,
              2761461.6
            ],
            [
              270875.15,
              2761461.25
            ],
            [
              270875.6,
              2761461.09375
            ],
            [
              270874.9820895521,
              2761459.8
            ],
            [
              270874.65,
              2761459.95
            ],
            [
              270874.4,
              2761459.1
            ],
            [
              270873.95,
              2761458.8
            ],
            [
              270873.85,
              2761458.2
            ],
            [
              270873.7,
              2761458.2
            ],
            [
              270873.4,
              2761457.45
            ],
            [
              270873.4,
              2761457.3
            ],
            [
              270873.71641791036,
              2761457.15
            ],
            [
              270873.3,
              2761456.55
            ],
            [
              270873.25,
              2761456.1734375
            ],
            [
              270872.1880597015,
              2761453.95
            ],
            [
              270871.95,
              2761454.0
            ],
            [
              270872.06865671644,
              2761453.7
            ],
            [
              270870.99402985076,
              2761451.45
            ],
            [
              270870.65,
              2761451.5
            ],
            [
              270870.35,
              2761451.05
            ],
            [
              270869.65,
              2761449.05
            ],
            [
              270868.8329528753,
              2761449.3529052753
            ],
            [
              270871.3640000754,
              2761455.389889
            ],
            [
              270874.61966831144,
              2761463.0528800823
            ],
            [
              270875.6,
              2761462.616860465
            ]
          ]
        ]
      }
    },
    {
      "type": "Feature",
      "id": "99-1-west-frontage-0",
      "properties": {
        "kind": "occupancy-building",
        "parcelKey": "sanzuwu-sanzuwu-99-1",
        "parcelNo": "99-1",
        "analysisStatus": "interpreted-draft",
        "analysisVersion": "20261010-draft-v2-user-review",
        "targetId": "99-1-west-frontage",
        "category": "建物／棚架／雨遮",
        "confidence": "medium",
        "sourceCrs": "EPSG:3826",
        "note": "西側連續建物前緣、綠色伸縮雨遮及鐵皮屋簷；以影像可辨識的連續屋頂候選區納入。依使用者回饋補強上下層與牆面連續著色，同一水平投影不重複加總。",
        "displayWallContinuity": true
      },
      "geometry": {
        "type": "Polygon",
        "coordinates": [
          [
            [
              270987.4,
              2761685.6
            ],
            [
              270987.05,
              2761684.95
            ],
            [
              270986.65,
              2761684.5500000003
            ],
            [
              270986.4,
              2761684.5500000003
            ],
            [
              270986.05,
              2761683.95
            ],
            [
              270983.75,
              2761681.25
            ],
            [
              270983.2,
              2761680.4000000004
            ],
            [
              270983.3,
              2761680.0
            ],
            [
              270982.5,
              2761679.0500000003
            ],
            [
              270982.4,
              2761678.7
            ],
            [
              270981.8,
              2761678.1500000004
            ],
            [
              270981.65,
              2761677.75
            ],
            [
              270981.25,
              2761677.35
            ],
            [
              270981.05,
              2761676.75
            ],
            [
              270980.85,
              2761676.5
            ],
            [
              270980.55,
              2761676.5
            ],
            [
              270980.35,
              2761676.3000000003
            ],
            [
              270980.15,
              2761675.8000000003
            ],
            [
              270978.5,
              2761673.85
            ],
            [
              270978.1,
              2761672.95
            ],
            [
              270977.5,
              2761672.1500000004
            ],
            [
              270976.3,
              2761671.2
            ],
            [
              270975.20415617456,
              2761672.071693952
            ],
            [
              270975.2840000796,
              2761672.172888992
            ],
            [
              270978.7840000735,
              2761676.710888993
            ],
            [
              270982.2430000749,
              2761680.988888993
            ],
            [
              270985.619000074,
              2761685.265888993
            ],
            [
              270989.0890211587,
              2761689.661976918
            ],
            [
              270989.1,
              2761689.6500000004
            ],
            [
              270989.1377671424,
              2761689.6416073022
            ],
            [
              270989.6614190049,
              2761688.4161066855
            ],
            [
              270987.4,
              2761685.6
            ]
          ]
        ]
      }
    },
    {
      "type": "Feature",
      "id": "221-west-eaves-0",
      "properties": {
        "kind": "occupancy-building",
        "parcelKey": "sanzuwu-sanzuwu-221",
        "parcelNo": "221",
        "analysisStatus": "interpreted-draft",
        "analysisVersion": "20261010-draft-v2-user-review",
        "targetId": "221-west-eaves",
        "category": "建物／雨遮",
        "confidence": "low",
        "sourceCrs": "EPSG:3826",
        "note": "西側建物前緣及窄雨遮；僅保留有高度與屋頂影像依據的部分。",
        "displayWallContinuity": false
      },
      "geometry": {
        "type": "Polygon",
        "coordinates": [
          [
            [
              271074.23786253406,
              2761503.3734828164
            ],
            [
              271077.27553318464,
              2761507.3898993307
            ],
            [
              271077.2,
              2761507.05
            ],
            [
              271074.45,
              2761503.4
            ],
            [
              271074.23786253406,
              2761503.3734828164
            ]
          ]
        ]
      }
    },
    {
      "type": "Feature",
      "id": "221-west-eaves-1",
      "properties": {
        "kind": "occupancy-building",
        "parcelKey": "sanzuwu-sanzuwu-221",
        "parcelNo": "221",
        "analysisStatus": "interpreted-draft",
        "analysisVersion": "20261010-draft-v2-user-review",
        "targetId": "221-west-eaves",
        "category": "建物／雨遮",
        "confidence": "low",
        "sourceCrs": "EPSG:3826",
        "note": "西側建物前緣及窄雨遮；僅保留有高度與屋頂影像依據的部分。",
        "displayWallContinuity": false
      },
      "geometry": {
        "type": "Polygon",
        "coordinates": [
          [
            [
              271077.3725148091,
              2761507.5181287024
            ],
            [
              271080.0596462369,
              2761511.071061289
            ],
            [
              271080.15,
              2761510.8
            ],
            [
              271077.7,
              2761507.5999999996
            ],
            [
              271077.3725148091,
              2761507.5181287024
            ]
          ]
        ]
      }
    },
    {
      "type": "Feature",
      "id": "221-west-eaves-2",
      "properties": {
        "kind": "occupancy-building",
        "parcelKey": "sanzuwu-sanzuwu-221",
        "parcelNo": "221",
        "analysisStatus": "interpreted-draft",
        "analysisVersion": "20261010-draft-v2-user-review",
        "targetId": "221-west-eaves",
        "category": "建物／雨遮",
        "confidence": "low",
        "sourceCrs": "EPSG:3826",
        "note": "西側建物前緣及窄雨遮；僅保留有高度與屋頂影像依據的部分。",
        "displayWallContinuity": false
      },
      "geometry": {
        "type": "Polygon",
        "coordinates": [
          [
            [
              271080.55,
              2761511.3499999996
            ],
            [
              271080.3,
              2761511.0999999996
            ],
            [
              271080.0815329788,
              2761511.0999999996
            ],
            [
              271081.93450143165,
              2761513.55
            ],
            [
              271082.0,
              2761513.55
            ],
            [
              271082.0,
              2761513.6366023878
            ],
            [
              271082.14648047916,
              2761513.8302792814
            ],
            [
              271082.2,
              2761513.75
            ],
            [
              271082.15,
              2761513.5
            ],
            [
              271080.55,
              2761511.3499999996
            ]
          ]
        ]
      }
    },
    {
      "type": "Feature",
      "id": "221-west-eaves-3",
      "properties": {
        "kind": "occupancy-building",
        "parcelKey": "sanzuwu-sanzuwu-221",
        "parcelNo": "221",
        "analysisStatus": "interpreted-draft",
        "analysisVersion": "20261010-draft-v2-user-review",
        "targetId": "221-west-eaves",
        "category": "建物／雨遮",
        "confidence": "low",
        "sourceCrs": "EPSG:3826",
        "note": "西側建物前緣及窄雨遮；僅保留有高度與屋頂影像依據的部分。",
        "displayWallContinuity": false
      },
      "geometry": {
        "type": "Polygon",
        "coordinates": [
          [
            [
              271085.3,
              2761517.6999999997
            ],
            [
              271085.3,
              2761517.4499999997
            ],
            [
              271085.5,
              2761517.3
            ],
            [
              271085.4,
              2761516.9
            ],
            [
              271085.1,
              2761516.75
            ],
            [
              271084.7,
              2761516.0
            ],
            [
              271084.35,
              2761515.8
            ],
            [
              271084.35,
              2761515.5999999996
            ],
            [
              271083.95,
              2761515.4
            ],
            [
              271083.95,
              2761515.0999999996
            ],
            [
              271083.6,
              2761514.9499999997
            ],
            [
              271083.55,
              2761514.5999999996
            ],
            [
              271083.3,
              2761514.5999999996
            ],
            [
              271083.2,
              2761514.8
            ],
            [
              271082.9443013827,
              2761514.8852328723
            ],
            [
              271087.7660000791,
              2761521.261888999
            ],
            [
              271087.95,
              2761521.5052624904
            ],
            [
              271087.95,
              2761521.3
            ],
            [
              271087.5,
              2761520.55
            ],
            [
              271085.3,
              2761517.6999999997
            ]
          ]
        ]
      }
    },
    {
      "type": "Feature",
      "id": "239-1-west-canopy-0",
      "properties": {
        "kind": "occupancy-building",
        "parcelKey": "sanzuwu-sanzuwu-239-1",
        "parcelNo": "239-1",
        "analysisStatus": "interpreted-draft",
        "analysisVersion": "20261010-draft-v2-user-review",
        "targetId": "239-1-west-canopy",
        "category": "棚架／雨遮",
        "confidence": "medium",
        "sourceCrs": "EPSG:3826",
        "note": "西北側綠色連續遮棚，排除北端樹冠。",
        "displayWallContinuity": false
      },
      "geometry": {
        "type": "Polygon",
        "coordinates": [
          [
            [
              271136.35,
              2761521.8
            ],
            [
              271136.15,
              2761521.65
            ],
            [
              271136.25,
              2761521.422180451
            ],
            [
              271130.40230818593,
              2761525.643070783
            ],
            [
              271130.18349486304,
              2761525.8140515247
            ],
            [
              271130.15,
              2761526.15
            ],
            [
              271130.55,
              2761526.05
            ],
            [
              271130.65,
              2761525.8
            ],
            [
              271130.9,
              2761525.8
            ],
            [
              271131.1,
              2761526.15
            ],
            [
              271134.05,
              2761524.3
            ],
            [
              271136.4,
              2761522.55
            ],
            [
              271136.25,
              2761522.15
            ],
            [
              271136.35,
              2761521.8
            ]
          ]
        ]
      }
    },
    {
      "type": "Feature",
      "id": "239-1-south-roof-0",
      "properties": {
        "kind": "occupancy-building",
        "parcelKey": "sanzuwu-sanzuwu-239-1",
        "parcelNo": "239-1",
        "analysisStatus": "interpreted-draft",
        "analysisVersion": "20261010-draft-v2-user-review",
        "targetId": "239-1-south-roof",
        "category": "建物／屋簷",
        "confidence": "medium",
        "sourceCrs": "EPSG:3826",
        "note": "南側大型鐵皮屋頂北緣跨入地籍的部分。",
        "displayWallContinuity": false
      },
      "geometry": {
        "type": "Polygon",
        "coordinates": [
          [
            [
              271143.9,
              2761517.15
            ],
            [
              271143.9709057798,
              2761517.0712158
            ],
            [
              271141.90882561106,
              2761517.1980660968
            ],
            [
              271140.1888647206,
              2761518.1317591514
            ],
            [
              271138.6660000775,
              2761519.302888997
            ],
            [
              271137.4609510591,
              2761520.218620079
            ],
            [
              271137.5327586206,
              2761520.4499999997
            ],
            [
              271138.35,
              2761519.8
            ],
            [
              271138.65,
              2761519.8
            ],
            [
              271139.05,
              2761520.35
            ],
            [
              271139.2763157892,
              2761520.35
            ],
            [
              271140.95,
              2761519.4727586205
            ],
            [
              271143.9,
              2761517.15
            ]
          ]
        ]
      }
    },
    {
      "type": "Feature",
      "id": "239-1-southeast-roof-0",
      "properties": {
        "kind": "occupancy-building",
        "parcelKey": "sanzuwu-sanzuwu-239-1",
        "parcelNo": "239-1",
        "analysisStatus": "interpreted-draft",
        "analysisVersion": "20261010-draft-v2-user-review",
        "targetId": "239-1-southeast-roof",
        "category": "建物／屋簷",
        "confidence": "medium",
        "sourceCrs": "EPSG:3826",
        "note": "東南側相接鐵皮屋頂前緣。",
        "displayWallContinuity": false
      },
      "geometry": {
        "type": "Polygon",
        "coordinates": [
          [
            [
              271153.4,
              2761509.35
            ],
            [
              271153.9,
              2761509.3
            ],
            [
              271154.1,
              2761508.9499999997
            ],
            [
              271154.4,
              2761508.9
            ],
            [
              271154.9,
              2761508.35
            ],
            [
              271155.3,
              2761508.1999999997
            ],
            [
              271155.5,
              2761507.9
            ],
            [
              271156.2030097839,
              2761507.395666894
            ],
            [
              271154.4840000791,
              2761507.140888999
            ],
            [
              271152.5270000762,
              2761508.644888999
            ],
            [
              271152.1731646075,
              2761510.3042053054
            ],
            [
              271153.4,
              2761509.35
            ]
          ]
        ]
      }
    },
    {
      "type": "Feature",
      "id": "646-2-east-canopy-0",
      "properties": {
        "kind": "occupancy-building",
        "parcelKey": "sanzuwu-sanzuwu-646-2",
        "parcelNo": "646-2",
        "analysisStatus": "interpreted-draft",
        "analysisVersion": "20261010-draft-v2-user-review",
        "targetId": "646-2-east-canopy",
        "category": "棚架／雨遮",
        "confidence": "medium",
        "sourceCrs": "EPSG:3826",
        "note": "東側大片淺綠色遮棚的臨路前緣。",
        "displayWallContinuity": false
      },
      "geometry": {
        "type": "Polygon",
        "coordinates": [
          [
            [
              271167.35,
              2761240.0
            ],
            [
              271168.5,
              2761242.6
            ],
            [
              271168.5,
              2761242.95
            ],
            [
              271169.35,
              2761244.8
            ],
            [
              271169.5,
              2761245.5
            ],
            [
              271169.8,
              2761245.75
            ],
            [
              271170.55,
              2761247.4
            ],
            [
              271171.85,
              2761250.75
            ],
            [
              271172.0,
              2761250.75
            ],
            [
              271172.2023124709,
              2761250.287571495
            ],
            [
              271167.9037000797,
              2761240.328389007
            ],
            [
              271167.6196896285,
              2761239.670379343
            ],
            [
              271167.35,
              2761240.0
            ]
          ]
        ]
      }
    },
    {
      "type": "Feature",
      "id": "646-2-northwest-awning-0",
      "properties": {
        "kind": "occupancy-building",
        "parcelKey": "sanzuwu-sanzuwu-646-2",
        "parcelNo": "646-2",
        "analysisStatus": "interpreted-draft",
        "analysisVersion": "20261010-draft-v2-user-review",
        "targetId": "646-2-northwest-awning",
        "category": "雨遮",
        "confidence": "medium",
        "sourceCrs": "EPSG:3826",
        "note": "西北角低矮鐵皮雨遮。",
        "displayWallContinuity": false
      },
      "geometry": {
        "type": "Polygon",
        "coordinates": [
          [
            [
              271159.95,
              2761258.1
            ],
            [
              271159.7950711546,
              2761257.68859231
            ],
            [
              271156.9110000826,
              2761259.135889007
            ],
            [
              271157.3586937947,
              2761259.3583205105
            ],
            [
              271160.1,
              2761258.478395062
            ],
            [
              271160.1,
              2761258.15
            ],
            [
              271159.95,
              2761258.1
            ]
          ]
        ]
      }
    },
    {
      "type": "Feature",
      "id": "1051-1-north-roof-0",
      "properties": {
        "kind": "occupancy-building",
        "parcelKey": "sanzuwu-sanzuwu-1051-1",
        "parcelNo": "1051-1",
        "analysisStatus": "interpreted-draft",
        "analysisVersion": "20261010-draft-v2-user-review",
        "targetId": "1051-1-north-roof",
        "category": "建物／屋簷",
        "confidence": "low",
        "sourceCrs": "EPSG:3826",
        "note": "北側淺綠色屋頂及檐口。依使用者要求排除電線桿：局部 LAS 屋頂約離地 8.3–8.6 m，桿件／橫臂約 9.6–9.8 m；9 m 以上高點投影外擴 15 cm 作排除遮罩，仍待影像與現地複核。",
        "displayWallContinuity": false
      },
      "geometry": {
        "type": "Polygon",
        "coordinates": [
          [
            [
              271259.5470381188,
              2761041.6704133903
            ],
            [
              271259.54712,
              2761041.67074
            ],
            [
              271259.54928,
              2761041.6853
            ],
            [
              271259.54941,
              2761041.6879
            ],
            [
              271259.55607,
              2761041.69393
            ],
            [
              271259.56595,
              2761041.70484
            ],
            [
              271259.57472,
              2761041.71666
            ],
            [
              271259.57795,
              2761041.72205
            ],
            [
              271259.58334,
              2761041.72528
            ],
            [
              271259.59516,
              2761041.73405
            ],
            [
              271259.60607,
              2761041.74393
            ],
            [
              271259.61595,
              2761041.75484
            ],
            [
              271259.62472,
              2761041.76666
            ],
            [
              271259.63229,
              2761041.77929
            ],
            [
              271259.63858,
              2761041.7926
            ],
            [
              271259.64354,
              2761041.80646
            ],
            [
              271259.64712,
              2761041.82074
            ],
            [
              271259.64928,
              2761041.8353
            ],
            [
              271259.64941,
              2761041.8379
            ],
            [
              271259.65607,
              2761041.84393
            ],
            [
              271259.66595,
              2761041.85484
            ],
            [
              271259.67472,
              2761041.86666
            ],
            [
              271259.68229,
              2761041.87929
            ],
            [
              271259.68858,
              2761041.8926
            ],
            [
              271259.69354,
              2761041.90646
            ],
            [
              271259.69712,
              2761041.92074
            ],
            [
              271259.69928,
              2761041.9353
            ],
            [
              271259.6997199933,
              2761041.9442831962
            ],
            [
              271260.9770000792,
              2761041.322889014
            ],
            [
              271261.79187708127,
              2761040.9305328485
            ],
            [
              271261.75,
              2761040.85
            ],
            [
              271259.5470381188,
              2761041.6704133903
            ]
          ]
        ]
      }
    },
    {
      "type": "Feature",
      "id": "1051-1-north-roof-1",
      "properties": {
        "kind": "occupancy-building",
        "parcelKey": "sanzuwu-sanzuwu-1051-1",
        "parcelNo": "1051-1",
        "analysisStatus": "interpreted-draft",
        "analysisVersion": "20261010-draft-v2-user-review",
        "targetId": "1051-1-north-roof",
        "category": "建物／屋簷",
        "confidence": "low",
        "sourceCrs": "EPSG:3826",
        "note": "北側淺綠色屋頂及檐口。依使用者要求排除電線桿：局部 LAS 屋頂約離地 8.3–8.6 m，桿件／橫臂約 9.6–9.8 m；9 m 以上高點投影外擴 15 cm 作排除遮罩，仍待影像與現地複核。",
        "displayWallContinuity": false
      },
      "geometry": {
        "type": "Polygon",
        "coordinates": [
          [
            [
              271258.90646,
              2761042.29354
            ],
            [
              271258.90288,
              2761042.27926
            ],
            [
              271258.90072,
              2761042.2647
            ],
            [
              271258.9,
              2761042.25
            ],
            [
              271258.9,
              2761042.21157
            ],
            [
              271258.89393,
              2761042.20607
            ],
            [
              271258.88405,
              2761042.19516
            ],
            [
              271258.87528,
              2761042.18334
            ],
            [
              271258.86771,
              2761042.17071
            ],
            [
              271258.86142,
              2761042.1574
            ],
            [
              271258.85646,
              2761042.14354
            ],
            [
              271258.85288,
              2761042.12926
            ],
            [
              271258.85072,
              2761042.1147
            ],
            [
              271258.85059,
              2761042.1121
            ],
            [
              271258.84393,
              2761042.10607
            ],
            [
              271258.83405,
              2761042.09516
            ],
            [
              271258.82528,
              2761042.08334
            ],
            [
              271258.81771,
              2761042.07071
            ],
            [
              271258.81142,
              2761042.0574
            ],
            [
              271258.8102553403,
              2761042.0541455275
            ],
            [
              271258.75,
              2761042.15
            ],
            [
              271258.18403499253,
              2761042.432982504
            ],
            [
              271258.18858,
              2761042.4426
            ],
            [
              271258.19354,
              2761042.45646
            ],
            [
              271258.19712,
              2761042.47074
            ],
            [
              271258.19928,
              2761042.4853
            ],
            [
              271258.2,
              2761042.5
            ],
            [
              271258.2,
              2761042.6
            ],
            [
              271258.19928,
              2761042.6147
            ],
            [
              271258.19712,
              2761042.62926
            ],
            [
              271258.19354,
              2761042.64354
            ],
            [
              271258.18858,
              2761042.6574
            ],
            [
              271258.18229,
              2761042.67071
            ],
            [
              271258.17472,
              2761042.68334
            ],
            [
              271258.1714079324,
              2761042.687803927
            ],
            [
              271258.91957525123,
              2761042.3238220373
            ],
            [
              271258.91771,
              2761042.32071
            ],
            [
              271258.91142,
              2761042.3074
            ],
            [
              271258.90646,
              2761042.29354
            ]
          ]
        ]
      }
    },
    {
      "type": "Feature",
      "id": "1051-1-north-roof-2",
      "properties": {
        "kind": "occupancy-building",
        "parcelKey": "sanzuwu-sanzuwu-1051-1",
        "parcelNo": "1051-1",
        "analysisStatus": "interpreted-draft",
        "analysisVersion": "20261010-draft-v2-user-review",
        "targetId": "1051-1-north-roof",
        "category": "建物／屋簷",
        "confidence": "low",
        "sourceCrs": "EPSG:3826",
        "note": "北側淺綠色屋頂及檐口。依使用者要求排除電線桿：局部 LAS 屋頂約離地 8.3–8.6 m，桿件／橫臂約 9.6–9.8 m；9 m 以上高點投影外擴 15 cm 作排除遮罩，仍待影像與現地複核。",
        "displayWallContinuity": false
      },
      "geometry": {
        "type": "Polygon",
        "coordinates": [
          [
            [
              271256.2740000839,
              2761043.610889013
            ],
            [
              271258.0435634694,
              2761042.75
            ],
            [
              271257.9,
              2761042.75
            ],
            [
              271257.8853,
              2761042.74928
            ],
            [
              271257.87074,
              2761042.74712
            ],
            [
              271257.85646,
              2761042.74354
            ],
            [
              271257.8426,
              2761042.73858
            ],
            [
              271257.82929,
              2761042.73229
            ],
            [
              271257.81666,
              2761042.72472
            ],
            [
              271257.80484,
              2761042.71595
            ],
            [
              271257.79393,
              2761042.70607
            ],
            [
              271257.78843,
              2761042.7
            ],
            [
              271257.75,
              2761042.7
            ],
            [
              271257.7353,
              2761042.69928
            ],
            [
              271257.72074,
              2761042.69712
            ],
            [
              271257.70646,
              2761042.69354
            ],
            [
              271257.6926,
              2761042.68858
            ],
            [
              271257.67929,
              2761042.68229
            ],
            [
              271257.66666,
              2761042.67472
            ],
            [
              271257.65484,
              2761042.66595
            ],
            [
              271257.64393,
              2761042.65607
            ],
            [
              271257.6379,
              2761042.64941
            ],
            [
              271257.6353,
              2761042.64928
            ],
            [
              271257.62074,
              2761042.64712
            ],
            [
              271257.60646,
              2761042.64354
            ],
            [
              271257.5926,
              2761042.63858
            ],
            [
              271257.57929,
              2761042.63229
            ],
            [
              271257.56666,
              2761042.62472
            ],
            [
              271257.55484,
              2761042.61595
            ],
            [
              271257.54393,
              2761042.60607
            ],
            [
              271257.53843,
              2761042.6
            ],
            [
              271257.5,
              2761042.6
            ],
            [
              271257.4853,
              2761042.59928
            ],
            [
              271257.47074,
              2761042.59712
            ],
            [
              271257.45646,
              2761042.59354
            ],
            [
              271257.4426,
              2761042.58858
            ],
            [
              271257.42929,
              2761042.58229
            ],
            [
              271257.41666,
              2761042.57472
            ],
            [
              271257.40484,
              2761042.56595
            ],
            [
              271257.39393,
              2761042.55607
            ],
            [
              271257.3879,
              2761042.54941
            ],
            [
              271257.3853,
              2761042.54928
            ],
            [
              271257.37074,
              2761042.54712
            ],
            [
              271257.35646,
              2761042.54354
            ],
            [
              271257.3426,
              2761042.53858
            ],
            [
              271257.32929,
              2761042.53229
            ],
            [
              271257.31666,
              2761042.52472
            ],
            [
              271257.30484,
              2761042.51595
            ],
            [
              271257.2967672183,
              2761042.50863936
            ],
            [
              271256.65,
              2761042.75
            ],
            [
              271256.4,
              2761042.9
            ],
            [
              271256.4,
              2761043.25
            ],
            [
              271256.15,
              2761043.45
            ],
            [
              271255.75,
              2761043.35
            ],
            [
              271255.70833333273,
              2761043.1
            ],
            [
              271254.6,
              2761043.5127586205
            ],
            [
              271254.75,
              2761044.1
            ],
            [
              271254.7030879651,
              2761044.1230756496
            ],
            [
              271254.9940000829,
              2761044.233889014
            ],
            [
              271256.2740000839,
              2761043.610889013
            ]
          ]
        ]
      }
    }
  ],
  "crs": {
    "type": "name",
    "properties": {
      "name": "EPSG:3826"
    }
  }
}