{
  "type": "FeatureCollection",
  "features": [
    {
      "type": "Feature",
      "id": "parcel-1006-221-fill",
      "properties": {
        "kind": "cadastral-fill",
        "parcelKey": "sanzuwu-sanzuwu-221",
        "parcelNo": "221",
        "sectionName": "三座屋段三座屋小段",
        "cadastralAreaM2": 127,
        "geometryAreaM2": 134.396,
        "sourceCrs": "EPSG:3826",
        "dxfHandle": "2FB",
        "analysisStatus": "interpreted-draft"
      },
      "geometry": {
        "type": "Polygon",
        "coordinates": [
          [
            [
              121.20884842199769,
              24.961425945116662
            ],
            [
              121.20879807824261,
              24.96136544423241
            ],
            [
              121.20870743384597,
              24.961256535409266
            ],
            [
              121.2086744684472,
              24.9612178588331
            ],
            [
              121.20865807410497,
              24.961198055456236
            ],
            [
              121.20867334912927,
              24.96120011961321
            ],
            [
              121.20892952395612,
              24.961426066103126
            ],
            [
              121.20887668518827,
              24.96145991542771
            ],
            [
              121.20884842199769,
              24.961425945116662
            ]
          ]
        ]
      }
    },
    {
      "type": "Feature",
      "id": "parcel-1006-221-boundary",
      "properties": {
        "kind": "cadastral-boundary",
        "parcelKey": "sanzuwu-sanzuwu-221",
        "parcelNo": "221",
        "sectionName": "三座屋段三座屋小段",
        "cadastralAreaM2": 127,
        "geometryAreaM2": 134.396,
        "sourceCrs": "EPSG:3826",
        "dxfHandle": "2FB",
        "analysisStatus": "interpreted-draft"
      },
      "geometry": {
        "type": "LineString",
        "coordinates": [
          [
            121.20884842199769,
            24.961425945116662
          ],
          [
            121.20879807824261,
            24.96136544423241
          ],
          [
            121.20870743384597,
            24.961256535409266
          ],
          [
            121.2086744684472,
            24.9612178588331
          ],
          [
            121.20865807410497,
            24.961198055456236
          ],
          [
            121.20867334912927,
            24.96120011961321
          ],
          [
            121.20892952395612,
            24.961426066103126
          ],
          [
            121.20887668518827,
            24.96145991542771
          ],
          [
            121.20884842199769,
            24.961425945116662
          ]
        ]
      }
    },
    {
      "type": "Feature",
      "id": "221-west-eaves-0",
      "properties": {
        "kind": "occupancy-building",
        "parcelKey": "sanzuwu-sanzuwu-221",
        "parcelNo": "221",
        "analysisStatus": "interpreted-draft",
        "analysisVersion": "20261010-draft-v2-user-review",
        "targetId": "221-west-eaves",
        "category": "建物／雨遮",
        "confidence": "low",
        "sourceCrs": "EPSG:3826",
        "note": "西側建物前緣及窄雨遮；僅保留有高度與屋頂影像依據的部分。",
        "displayWallContinuity": false
      },
      "geometry": {
        "type": "Polygon",
        "coordinates": [
          [
            [
              121.20871417076604,
              24.961264629796148
            ],
            [
              121.20874431612377,
              24.961300849325504
            ],
            [
              121.20874356288941,
              24.96129778163725
            ],
            [
              121.20871627211709,
              24.9612648662588
            ],
            [
              121.20871417076604,
              24.961264629796148
            ]
          ]
        ]
      }
    },
    {
      "type": "Feature",
      "id": "221-west-eaves-1",
      "properties": {
        "kind": "occupancy-building",
        "parcelKey": "sanzuwu-sanzuwu-221",
        "parcelNo": "221",
        "analysisStatus": "interpreted-draft",
        "analysisVersion": "20261010-draft-v2-user-review",
        "targetId": "221-west-eaves",
        "category": "建物／雨遮",
        "confidence": "low",
        "sourceCrs": "EPSG:3826",
        "note": "西側建物前緣及窄雨遮；僅保留有高度與屋頂影像依據的部分。",
        "displayWallContinuity": false
      },
      "geometry": {
        "type": "Polygon",
        "coordinates": [
          [
            [
              121.20874527855416,
              24.961302005681446
            ],
            [
              121.20877194523194,
              24.961334045566637
            ],
            [
              121.20877283594164,
              24.961331597070814
            ],
            [
              121.20874852311921,
              24.96130274029987
            ],
            [
              121.20874527855416,
              24.961302005681446
            ]
          ]
        ]
      }
    },
    {
      "type": "Feature",
      "id": "221-west-eaves-2",
      "properties": {
        "kind": "occupancy-building",
        "parcelKey": "sanzuwu-sanzuwu-221",
        "parcelNo": "221",
        "analysisStatus": "interpreted-draft",
        "analysisVersion": "20261010-draft-v2-user-review",
        "targetId": "221-west-eaves",
        "category": "建物／雨遮",
        "confidence": "low",
        "sourceCrs": "EPSG:3826",
        "note": "西側建物前緣及窄雨遮；僅保留有高度與屋頂影像依據的部分。",
        "displayWallContinuity": false
      },
      "geometry": {
        "type": "Polygon",
        "coordinates": [
          [
            [
              121.2087768058027,
              24.96133655712075
            ],
            [
              121.20877432606724,
              24.961334303499182
            ],
            [
              121.20877216243265,
              24.96133430653216
            ],
            [
              121.20879055101386,
              24.961356400311413
            ],
            [
              121.20879119969298,
              24.96135639940202
            ],
            [
              121.20879120101195,
              24.96135718128037
            ],
            [
              121.20879265466257,
              24.961358927833125
            ],
            [
              121.20879318348196,
              24.961358202299046
            ],
            [
              121.2087926844886,
              24.961355945900912
            ],
            [
              121.2087768058027,
              24.96133655712075
            ]
          ]
        ]
      }
    },
    {
      "type": "Feature",
      "id": "221-west-eaves-3",
      "properties": {
        "kind": "occupancy-building",
        "parcelKey": "sanzuwu-sanzuwu-221",
        "parcelNo": "221",
        "analysisStatus": "interpreted-draft",
        "analysisVersion": "20261010-draft-v2-user-review",
        "targetId": "221-west-eaves",
        "category": "建物／雨遮",
        "confidence": "low",
        "sourceCrs": "EPSG:3826",
        "note": "西側建物前緣及窄雨遮；僅保留有高度與屋頂影像依據的部分。",
        "displayWallContinuity": false
      },
      "geometry": {
        "type": "Polygon",
        "coordinates": [
          [
            [
              121.20882394516622,
              24.96139382131332
            ],
            [
              121.20882394135802,
              24.96139156422099
            ],
            [
              121.20882591981652,
              24.961390207188305
            ],
            [
              121.20882492335168,
              24.961386597229232
            ],
            [
              121.20882194995177,
              24.96138524713974
            ],
            [
              121.20881797704088,
              24.961378481417196
            ],
            [
              121.20881450769383,
              24.96137668060338
            ],
            [
              121.20881450464742,
              24.96137487492951
            ],
            [
              121.20881054011474,
              24.961373074809888
            ],
            [
              121.2088105355452,
              24.961370366299093
            ],
            [
              121.20880706696005,
              24.961369016903564
            ],
            [
              121.20880656644329,
              24.96136585766856
            ],
            [
              121.20880409051449,
              24.96136586113984
            ],
            [
              121.20880310318923,
              24.961367668202215
            ],
            [
              121.2088005721211,
              24.961368441266412
            ],
            [
              121.20884842199769,
              24.961425945116662
            ],
            [
              121.20885024798909,
              24.961428139827
            ],
            [
              121.20885024486199,
              24.961426286641444
            ],
            [
              121.20884577676225,
              24.9614195216141
            ],
            [
              121.20882394516622,
              24.96139382131332
            ]
          ]
        ]
      }
    }
  ]
}