{
  "type": "FeatureCollection",
  "name": "F198803880000",
  "features": [
    {
      "type": "Feature",
      "id": "parcel-388-fill",
      "properties": {
        "kind": "cadastral-fill",
        "parcelNo": "388",
        "county": "新北市",
        "landOffice": "樹林",
        "sectionName": "十三添一段",
        "sectionCode": "1988",
        "townCode": "15",
        "surveyMethod": "數值法",
        "surveyType": "地籍圖重測",
        "mapDate": "2020-09",
        "crs": "TWD97 二度 TM（EPSG:3826）",
        "scale": "1:500",
        "stroke": "#ffbf47",
        "stroke-width": 3,
        "fill": "#ef626c",
        "fill-opacity": 0.36
      },
      "geometry": {
        "type": "Polygon",
        "coordinates": [[
          [121.369292624169077, 24.900481476613276], [121.369371222270686, 24.900465437237806], [121.369428452721081, 24.900460663980709], [121.369503340668786, 24.900488493598839], [121.369659612753409, 24.900511751822854], [121.369716374121907, 24.90046248775527], [121.369843379294835, 24.900473729306118], [121.369859323434099, 24.90048607672038], [121.369913389390703, 24.900492316718502], [121.369965952886261, 24.900489315360549], [121.370063454527823, 24.900495492732038], [121.370162728923475, 24.90051523529781], [121.370243821224719, 24.900509084380634], [121.370320196274704, 24.900497798951122], [121.370448134543409, 24.900499937062563], [121.370459094921074, 24.900480850936702], [121.370624165334021, 24.900463711384514], [121.370737913877932, 24.900504029403411], [121.370852098358696, 24.900488135555108], [121.370910838016613, 24.900448481345094], [121.370966663580276, 24.900440668426938], [121.370972500171391, 24.900455993132859], [121.370973146190877, 24.900483356547294], [121.370873688901071, 24.900488569419629], [121.370873057874874, 24.900578845762876], [121.370893901953607, 24.900577761940294], [121.370890959866713, 24.900862262222361], [121.37083132890362, 24.900855272088261], [121.370741400160284, 24.900839361867011], [121.370691985769355, 24.90083952076364], [121.370664125331658, 24.900834470891546], [121.370627945253545, 24.900837810990197], [121.37040458657917, 24.900827224662525], [121.370409865896164, 24.900576240637072], [121.370328620093545, 24.900574085915625], [121.370327154405317, 24.900736419835376], [121.370188789633573, 24.900736654872176], [121.370188380916701, 24.900812024806424], [121.370070426478421, 24.900792030659833], [121.369821327657675, 24.900767025779395], [121.369765545177046, 24.900766116748038], [121.369732945908225, 24.900758631754869], [121.369502514249561, 24.900786116228005], [121.369432612907232, 24.900737590243828], [121.369393358160863, 24.900662408797846], [121.369341191704905, 24.900612583913549], [121.369353754371389, 24.900602973701311], [121.369365880780464, 24.900556537800941], [121.369363847274784, 24.900521846765944], [121.369375358898907, 24.900501666919379], [121.369292624169077, 24.900481476613276]
        ]]
      }
    },
    {
      "type": "Feature",
      "id": "parcel-388-boundary",
      "properties": {
        "kind": "cadastral-boundary",
        "parcelNo": "388",
        "stroke": "#ffbf47",
        "stroke-width": 3
      },
      "geometry": {
        "type": "LineString",
        "coordinates": [[121.369292624169077,24.900481476613276],[121.369371222270686,24.900465437237806],[121.369428452721081,24.900460663980709],[121.369503340668786,24.900488493598839],[121.369659612753409,24.900511751822854],[121.369716374121907,24.90046248775527],[121.369843379294835,24.900473729306118],[121.369859323434099,24.90048607672038],[121.369913389390703,24.900492316718502],[121.369965952886261,24.900489315360549],[121.370063454527823,24.900495492732038],[121.370162728923475,24.90051523529781],[121.370243821224719,24.900509084380634],[121.370320196274704,24.900497798951122],[121.370448134543409,24.900499937062563],[121.370459094921074,24.900480850936702],[121.370624165334021,24.900463711384514],[121.370737913877932,24.900504029403411],[121.370852098358696,24.900488135555108],[121.370910838016613,24.900448481345094],[121.370966663580276,24.900440668426938],[121.370972500171391,24.900455993132859],[121.370973146190877,24.900483356547294],[121.370873688901071,24.900488569419629],[121.370873057874874,24.900578845762876],[121.370893901953607,24.900577761940294],[121.370890959866713,24.900862262222361],[121.37083132890362,24.900855272088261],[121.370741400160284,24.900839361867011],[121.370691985769355,24.90083952076364],[121.370664125331658,24.900834470891546],[121.370627945253545,24.900837810990197],[121.37040458657917,24.900827224662525],[121.370409865896164,24.900576240637072],[121.370328620093545,24.900574085915625],[121.370327154405317,24.900736419835376],[121.370188789633573,24.900736654872176],[121.370188380916701,24.900812024806424],[121.370070426478421,24.900792030659833],[121.369821327657675,24.900767025779395],[121.369765545177046,24.900766116748038],[121.369732945908225,24.900758631754869],[121.369502514249561,24.900786116228005],[121.369432612907232,24.900737590243828],[121.369393358160863,24.900662408797846],[121.369341191704905,24.900612583913549],[121.369353754371389,24.900602973701311],[121.369365880780464,24.900556537800941],[121.369363847274784,24.900521846765944],[121.369375358898907,24.900501666919379],[121.369292624169077,24.900481476613276]]
      }
    }
  ]
}
